state,city,zip,Y,X,compid,id
PA,Mill Hall,17751,41.106295,-77.488495,2,1
OH,Austinburg,44010,41.760517,-80.850566,2,2
OH,Austintown,44515,41.099874,-80.751233,2,3
OH,Avon,44011,41.448666,-82.021439,2,4
OH,Cambridge,43725,40.027358,-81.593383,2,5
OH,Circleville,43113,39.594775,-82.936458,2,6
OH,Franklin,45005,39.52896,-84.29742,2,7
OH,North Lima,44452,40.952505,-80.658498,2,8
OH,Perrysburg,43551,41.542639,-83.597702,2,9
OH,Seville,44273,41.027572,-81.883128,2,10
OH,Sunbury,43074,40.269436,-82.843951,2,11
OH,Toledo,43612,41.702832,-83.539208,2,12
OH,Wilmington,45177,39.453237,-83.843068,2,13
MI,Battle Creek,49014,42.312625,-85.106599,2,14
MI,Dexter,48130,42.353665,-83.897388,2,15
MI,Ionia,49014,42.312625,-85.106599,2,16
MI,Monroe,48162,41.94,-83.313333,2,17
MI,Ottawa Lake,49267,41.758173,-83.692281,2,18
IN,Daleville,47334,40.122017,-85.548158,2,19
IN,Freemont,46737,41.7219,-84.92022,2,20
IN,Greenfield,46140,39.794852,-85.791522,2,21
IN,Highland,46322,41.551945,-87.457161,2,22
IN,Remington,47977,40.76398,-87.150709,2,23
IN,South Bend,46628,41.698701,-86.309464,2,24
IN,Valparaiso,46383,41.489214,-87.074602,2,25
IN,Whiteland,46184,39.555508,-86.091336,2,26
IL,Monee,60449,41.419345,-87.774708,2,27
WI,Oak Creek,53154,42.88606,-87.903062,2,28
KY,Mt. Sterling,40353,38.057445,-83.934406,2,29
IA,Walcott,52773,41.63646,-90.75894,2,30
MO,Booneville,65233,38.964646,-92.743139,2,31
KY,Franklin,42134,36.728547,-86.572927,2,32
KY,Georgetown,40324,38.220225,-84.565091,2,33
KY,Glendale,42740,37.591766,-85.93973,2,34
KY,Oak Grove,42262,36.677845,-87.447679,2,35
KY,Sulphur,40070,38.488992,-85.232317,2,36
TN,Greeneville,37745,36.186641,-82.815175,2,37
TN,Lavergne,37086,36.013661,-86.565021,2,38
TN,Hurricane Mills,37078,35.949864,-87.761509,2,39
NC,Kannapolis,28083,35.483897,-80.599575,2,40
NC,Mebane,27302,36.089915,-79.285944,2,41
NC,PLEASANT HILL,27866,36.525713,-77.514848,2,42
SC,Benton,29018,33.34911,-80.687537,2,43
SC,Clinton,29325,34.470685,-81.887131,2,44
SC,Florence,29506,34.2099,-79.73412,2,45
SC,Piedmont,29673,34.67513,-82.534256,2,46
SC,Summerville,29483,33.017824,-80.21135,2,47
GA,AUGUSTA,30909,33.478228,-82.067015,2,48
GA,Brazelton,30571,34.743332,-83.716475,2,49
GA,Cartersville,30121,34.228469,-84.789525,2,50
GA,Dublin,31021,32.542986,-82.909684,2,51
GA,LaGrange,30240,33.030882,-85.03697,2,52
GA,Port Wentworth,31407,32.16666,-81.17274,2,53
GA,Savannah,31408,32.172908,-81.206224,2,54
GA,Valdosta,31601,30.825593,-83.284447,2,55
AL,Satsuma,36572,30.854788,-88.056897,2,56
AL,Tuscaloosa,35405,33.157819,-87.51716,2,57
MS,Jackson,39204,32.285241,-90.230923,2,58
LA,Denham Springs,70726,30.495187,-90.921746,2,59
PA,New Castle,16051,40.961226,-80.153974,2,60
LA,LaPlace,70068,30.05496,-90.48054,2,61
FL,Baldwin,32234,30.219367,-81.997401,2,62
FL,Cocoa,32926,28.387668,-80.791132,2,63
FL,Ellenton,34222,27.5334,-82.500332,2,64
FL,Fort Pierce,34945,27.42497,-80.450133,2,65
FL,Jacksonville,32259,30.091233,-81.625682,2,66
FL,Ocala,34482,29.229052,-82.306676,2,67
FL,Punta Gorda,33950,26.912326,-82.046888,2,68
FL,Wildwood,34785,28.860356,-82.040896,2,69
FL,Yeehaw Junction,34972,27.325224,-80.849484,2,70
OH,Vandalia,45377,39.889016,-84.205982,2,71
TX,Big Lake,76932,31.212019,-101.46334,2,72
TX,Tilden,78072,28.347668,-98.653364,2,73
TX,Childress,79201,34.4325,-100.14582,2,74
OK,Tonkawa,74653,36.679522,-97.302551,2,75
NV,Fernley,89408,39.597279,-119.231521,2,76
TX,Junction,76849,30.46284,-99.71004,2,77
IA,Mt. Pleasant,52641,40.968419,-91.548901,2,78
CA,Lathrop,95330,37.818495,-121.286548,2,79
CA,Orland,95963,39.745762,-122.190763,2,80
WY,Rock Springs,82901,41.59755,-109.234183,2,81
IN,Lake Station,45405,39.787602,-84.210619,2,82
MI,Holland,45923,42.7875,-86.10889,2,83
TX,Wheeler,79096,35.440865,-100.274083,2,84
TX,Lufkin,75901,31.330215,-94.721876,2,85
IL,Joliet,60433,41.513131,-88.052737,2,86
TX,Channelview,77530,29.789616,-95.120167,2,87
TX,Carrizo Springs,78834,28.5207,-99.88848,2,88
TX,Vega,79092,35.244444,-102.426615,2,89
TX,Buffalo,75831,31.461433,-96.074604,2,90
IL,Alsip,60803,41.66721,-87.740131,2,91
OH,Steubenville,43952,40.36914,-80.7126,2,92
TX,Midland,79702,31.974932,-102.07866,2,93
TN,Knoxville,37922,35.85642,-84.12834,2,94
IL,Carol Stream,60188,41.920273,-88.143298,2,95
IL,Bridgeview,60455,41.737459,-87.803915,2,96
ID,Idaho Falls,83402,43.496857,-112.113288,2,97
MN,Coon Rapids,55303,45.261223,-93.440539,2,98
FL,South Bay,33493,26.672694,-80.716833,2,99
FL,Jacksonville,32219,30.410491,-81.807977,2,100
VA,Suffolk,23434,36.731942,-76.60187,2,101
TN,Knoxville,37923,35.924565,-84.100399,2,102
LA,Iowa,70647,30.236653,-93.01465,2,103
CO,Lamar,81052,37.95864,-102.5787,2,104
TX,Mustang Ridge,78610,30.082691,-97.843934,2,105
TX,Pasadena,77506,29.705414,-95.201839,2,106
FL,Waldo,32964,27.637858,-80.399918,2,107
TX,Schulenberg,78956,29.680967,-96.906472,2,108
TN,Knoxville,37921,35.97295,-83.986531,2,109
MO,Springfield,65802,37.212257,-93.306677,2,110
NC,Marion,28752,35.674582,-82.017112,2,111
SC,Summerville,29483,33.017824,-80.21135,2,112
TN,Farragut,37922,35.85642,-84.12834,2,113
NM,Santa Rosa,88435,34.936606,-104.684358,2,114
UT,Vernal,84078,40.47432,-109.570104,2,115
CA,Patteson,95363,37.486062,-121.129906,2,116
SC,N. Charleston,29406,32.92896,-80.02842,2,117
TX,Stratford,79084,36.337253,-102.072473,2,118
MA,Devens,1434,42.560949,-71.576624,2,119
IN,Marion,46952,40.573842,-85.666492,2,120
UT,Vernal,84078,40.47432,-109.570104,2,121
IA,Cedar Rapids,52404,41.947254,-91.690122,2,122
CA,Techachapi,93561,35.135575,-118.527991,2,123
FL,Cocoa,32926,28.387668,-80.791132,2,124
NJ,Newark,7105,40.72214,-74.140998,2,125
LA,Bunkie,71322,30.94338,-92.18526,2,126
NM,Lovington,88260,32.93112,-103.31346,2,127
TX,Grand Prairie,75050,32.768436,-97.002967,2,128
TX,Houston,77061,29.659716,-95.284114,2,129
TN,Knoxville,37921,35.97295,-83.986531,2,130
CO,Monument,80132,39.100182,-104.849748,2,131
NC,Advance,27006,36.01038,-80.44734,2,132
IL,Bensenville,60106,41.955274,-87.948789,2,133
IN,Rochester,46975,41.061041,-86.208192,2,134
NM,Clovis,88101,34.40538,-103.24842,2,135
TN,Louisville,37777,35.831102,-84.048154,2,136
MO,Kansas City,64161,39.161625,-94.466674,2,137
FL,Bartow,33830,27.899601,-81.819661,2,138
TX,Orla,79770,31.82789,-103.91303,2,139
TX,Falfurrias,78355,27.22536,-98.1437,2,140
TN,Crossville,38571,35.957067,-84.971996,2,141
TX,Rhome,76078,33.046961,-97.472602,2,142
TX,Pecos,79772,31.375544,-103.523013,2,143
TX,Kermit,79745,31.853325,-103.090864,2,144
PA,Emlenton,16373,41.178788,-79.709264,2,145
LA,St. Rose,70087,29.982463,-90.313325,2,146
AR,Benton,72015,34.566563,-92.583045,2,147
TN,Knoxville,37917,35.995236,-83.917073,2,148
TN,Knoxville,37918,36.049059,-83.918501,2,149
TN,Knoxville,37912,36.005751,-83.981348,2,150
TN,Knoxville,37918,36.049059,-83.918501,2,151
TN,Maryville,37801,35.749086,-83.96954,2,152
OH,Richfield,44286,41.231451,-81.641199,2,153
IA,Osceola,50213,41.036668,-93.763856,2,154
TN,Kingston,37763,35.876568,-84.507327,2,155
OR,Chemult,97731,43.0653,-121.84992,2,156
MN,St. Cloud,56311,45.891548,-95.883332,2,157
CA,Weed,96094,41.466318,-122.383688,2,158
TN,Knoxville,37919,35.926579,-84.006405,2,159
UT,Roosevelt,84066,40.298824,-109.998125,2,160
WY,Evanston,82930,41.249255,-110.959297,2,161
GA,AUGUSTA,30907,33.525,-82.10142,2,162
AR,Springdale,72762,36.180785,-94.167717,2,163
NY,Castleton,12033,42.535438,-73.70907,2,164
NV,W. Wendover,89883,40.69133,-114.143019,2,165
TN,Stanton,38069,35.441511,-89.33686,2,166
MD,Hagerstown,21740,39.643547,-77.718382,2,167
WA,Tumwater,98512,46.951987,-123.014667,2,168
IN,Memphis,47143,38.471919,-85.766289,2,169
CA,Lost Hills,93249,35.655395,-119.76904,2,170
AL,Lincoln,35096,33.593989,-86.132344,2,171
AL,Good Hope,35055,34.174036,-86.843648,2,172
KY,Morton's Gap,42440,37.238024,-87.469456,2,173
TX,Sulphur Springs,75482,33.128095,-95.598595,2,174
TN,Pioneer,37847,36.459083,-84.30266,2,175
TN,Knoxville,37922,35.85642,-84.12834,2,176
VA,Tallysville,23140,37.443403,-77.056714,2,177
NM,Lordsburg,88045,32.347258,-108.708739,2,178
WI,Mauston,53948,43.795494,-90.080098,2,179
IL,Effingham,62401,39.12264,-88.58796,2,180
TN,Knoxville,37920,35.923862,-83.877198,2,181
MO,Nevada,64772,37.838803,-94.36126,2,182
CA,Dunnigan,95937,38.888464,-121.990452,2,183
IL,Oakwood,61858,40.107624,-87.776626,2,184
TN,Pigeon Forge,37863,35.793902,-83.562814,2,185
MS,New Albany,38652,34.491548,-89.012762,2,186
MD,Hagerstown,21740,39.643547,-77.718382,2,187
AZ,Bellemont,86015,35.198056,-111.650556,2,188
TN,Knoxville,37912,36.005751,-83.981348,2,189
NJ,Hampton,8827,40.678752,-74.963414,2,190
TN,Knoxville,38924,33.293145,-90.230924,2,191
GA,Tifton,31794,31.460118,-83.509086,2,192
TN,Knoxville,37923,35.924565,-84.100399,2,193
OR,Wasco,97065,45.593945,-120.695798,2,194
OK,Roland,74954,35.417716,-94.509455,2,195
IN,Plymouth,46563,41.348915,-86.328202,2,196
LA,Haughton,71037,32.5368,-93.5349,2,197
CA,Boron,93516,35.008562,-117.655982,2,198
TN,Knoxville,37921,35.97295,-83.986531,2,199
TX,Weatherford,76087,32.699394,-97.77265,2,200
TN,Sevierville,37862,35.871495,-83.53315,2,201
MO,Pacific,63609,38.48194,-90.74139,2,202
TX,Van Horn,79855,31.06,-104.21,2,203
NJ,Mahwah,7430,41.074187,-74.153515,2,204
AZ,Lake Havasu Cit,86404,34.518339,-114.324094,2,205
TN,Lenoia City,37771,35.792702,-84.266138,2,206
OH,Columbus,43204,39.955851,-83.082221,2,207
TN,Knoxville,37912,36.005751,-83.981348,2,208
TN,Knoxville,37918,36.049059,-83.918501,2,209
TN,Knoxville,37914,35.992378,-83.825982,2,210
MA,Sturbridge,1566,42.110485,-72.076312,2,211
TN,Knoxville,37934,35.8761,-84.1703,2,212
MA,Sturbridge,1566,42.110485,-72.076312,2,213
TN,Seymour,37865,35.863635,-83.739635,2,214
TN,Pioneer,37847,36.459083,-84.30266,2,215
TN,Dandridge,37725,36.020059,-83.419087,2,216
KY,Corbin,40701,36.937489,-84.114901,2,217
OR,Ontario,97914,44.052879,-116.984744,2,218
OR,Oakland,97462,43.46688,-123.36624,2,219
TX,Huntsville,77320,30.81913,-95.578507,2,220
TN,Knoxville,37919,35.926579,-84.006405,2,221
IL,Minooka,60447,41.507187,-88.334647,2,222
CA,Salinas,93901,36.667014,-121.654897,2,223
IA,Percival,51648,40.751649,-95.809619,2,224
OH,Upper Sandusky,43351,40.81548,-83.31012,2,225
KY,Middlesboro,40965,36.609522,-83.721655,2,226
TN,Knoxville,37914,35.992378,-83.825982,2,227
IN,Shelbyville,46176,39.51857,-85.778917,2,228
WV,Nitro,25143,38.410942,-81.828664,2,229
TN,Knoxville,37916,35.954943,-83.93035,2,230
PA,Harrisburg,17112,40.33806,-76.80378,2,231
IN,Crawfordsville,47933,40.034074,-86.907942,2,232
IL,Troy,62294,38.7068,-89.873032,2,233
TN,Knoxville,37924,36.030778,-83.813882,2,234
MO,Kearney,64060,39.363857,-94.361037,2,235
NJ,Carneys Point,8069,39.70704,-75.4467,2,236
GA,Wildwood,30757,34.977192,-85.436272,2,237
CT,Milford,6460,41.232682,-73.061948,2,238
VA,Danville,24541,36.574659,-79.436458,2,239
TX,Midland,79706,31.989044,-102.073733,2,240
VA,Troutville,24175,37.397461,-79.876477,2,241
OK,Muskogee,74401,35.7399,-95.38494,2,242
GA,Albany,31705,31.558731,-84.090313,2,243
MS,Winona,38967,33.483835,-89.732137,2,244
TN,Knoxville,37914,35.992378,-83.825982,2,245
TN,Cookeville,38501,36.19962,-85.52274,2,246
NM,Las Cruces,88005,32.323217,-106.805117,2,247
GA,Byron,31008,32.646227,-83.754589,2,248
IA,Walcott,52773,41.63646,-90.75894,2,249
TN,Sevierville,37876,35.839522,-83.480286,2,250
TN,Knoxville,37922,35.85642,-84.12834,2,251
IN,Gary,46406,41.587301,-87.411577,2,252
LA,Breaux Bridge,70517,30.279139,-91.898037,2,253
NC,Charlotte,28206,35.25084,-80.822041,2,254
TN,Powell,37894,36.03167,-84.02806,2,255
KY,Walton,41094,38.884714,-84.634472,2,256
AZ,Rio Rico,85648,31.48626,-111.003,2,257
NJ,Bloomsbury,8804,40.645635,-75.076618,2,258
OH,Girard,44420,41.157789,-80.68793,2,259
CA,Barstow,92311,34.887322,-117.037597,2,260
MI,Monroe,48162,41.94,-83.313333,2,261
OH,Hebron,43025,39.97458,-82.50594,2,262
OH,Eaton,45320,39.733814,-84.671102,2,263
OH,Burbank,44214,40.946706,-81.998141,2,264
WI,Beloit,53511,42.5589,-89.08734,2,265
MD,Perryville,21903,39.571241,-76.046209,2,266
FL,Ocala,34473,29.026127,-82.185636,2,267
UT,MSC,84404,41.276379,-111.987441,2,268
TN,Morristown,37814,36.221466,-83.310936,2,269
MI,Dexter,48130,42.353665,-83.897388,2,270
IN,Terre Haute,47802,39.42715,-87.391878,2,271
PA,Drums,18222,41.035414,-75.952009,2,272
IL,Bloomington,61701,40.47558,-89.00472,2,273
LA,Hammond,70403,30.48572,-90.47534,2,274
MO,Marston,63873,36.430781,-89.697849,2,275
AL,Theodore,36582,30.532137,-88.179287,2,276
OH,Napoleon,43545,41.386399,-84.133117,2,277
IN,New Haven,46774,41.076957,-84.996923,2,278
NM,Jamestown,87347,35.432459,-108.729828,2,279
TX,San Antonio,78219,29.44692,-98.38098,2,280
CA,N. Palm Springs,92258,33.922919,-116.549446,2,281
WY,Laramie,82072,41.06136,-106.01475,2,282
OH,Caldwell,43724,39.76968,-81.48006,2,283
SC,Duncan,29334,34.914282,-82.134672,2,284
PA,Erie,16509,42.072512,-80.063237,2,285
GA,Tallapoosa,30176,33.753316,-85.291849,2,286
IL,East Saint Louis,62201,38.628113,-90.138442,2,287
TN,Lake City,37769,36.215045,-84.153561,2,288
TN,Severville,37862,35.871495,-83.53315,2,289
MO,Joplin,64804,37.064704,-94.509874,2,290
IN,Indianapolis,46217,39.667568,-86.198814,2,291
GA,Dalton,30721,34.784599,-84.932948,2,292
KY,Walton,41094,38.884714,-84.634472,2,293
NY,Bath,14810,42.34203,-77.318938,2,294
WI,Franksville,53126,42.779997,-87.960272,2,295
IL,Minonk,61760,40.89318,-89.03568,2,296
AZ,Quartsite,85359,33.691042,-114.223077,2,297
IA,Council Bluffs,51501,41.254887,-95.852753,2,298
TX,New Braunfels,78132,29.77722,-98.15298,2,299
GA,Atlanta,30316,33.718321,-84.32619,2,300
AR,N. Little Rock,72117,34.78092,-92.15208,2,301
TN,Knoxville,37923,35.924565,-84.100399,2,302
LA,Rayville,71269,32.48136,-91.76166,2,303
PA,Dubois,15801,41.124856,-78.763496,2,304
SC,Florence,29501,34.182662,-79.782749,2,305
SC,Cayce,29033,33.965536,-81.069156,2,306
IN,Covington,47932,40.138435,-87.391625,2,307
NV,Fernley,89408,39.597279,-119.231521,2,308
NV,N. Las Vegas,89031,36.256036,-115.140687,2,309
CA,Otay Mesa,92154,32.578188,-117.072374,2,310
SC,Lugoff,29078,34.220008,-80.71366,2,311
IL,McLean,61754,40.314947,-89.170467,2,312
PA,Bentleyville,15314,40.133934,-80.012058,2,313
ID,Mountain Home,83647,43.16976,-115.71378,2,314
FL,Fort Myers,33905,26.67091,-81.80214,2,315
KY,Georgetown,40324,38.220225,-84.565091,2,316
KY,Simpsonville,40067,38.235127,-85.352938,2,317
KY,Brooks,40165,38.010762,-85.697038,2,318
KY,Paducah,42001,37.03758,-88.71018,2,319
OH,Findlay,45840,41.043063,-83.643019,2,320
IN,Pendleton,46064,39.99252,-85.77294,2,321
TN,Memphis,38118,35.048583,-89.925961,2,322
CA,Madera,93637,36.958261,-120.070035,2,323
TN,Jackson,38305,35.681229,-88.821998,2,324
TX,Caddo Mills,75135,33.068967,-96.229757,2,325
IL,Decatur,62521,39.827104,-88.924086,2,326
AL,Birmingham,35204,33.520297,-86.838364,2,327
PA,Pittston,18640,41.321046,-75.792617,2,328
CA,CASTAIC,91384,34.46482,-118.640594,2,329
IA,Des Moines,50322,41.629345,-93.732012,2,330
FL,Marianna,32448,30.661698,-85.18484,2,331
TX,Houston,77013,29.795292,-95.23979,2,332
TN,Knoxville,37919,35.926579,-84.006405,2,333
TX,Laredo,78045,27.594073,-99.51285,2,334
IL,Chicago,51111,42.425511,-96.375133,2,335
NY,Liverpool,13088,43.111538,-76.195307,2,336
CA,Hesperia,92345,34.416478,-117.307226,2,337
VA,Colonial Heights,23834,37.287361,-77.391074,2,338
MO,Collins,64738,37.869606,-93.678666,2,339
OR,Brooks,97303,45.01182,-123.01566,2,340
NV,Carlin,89822,40.716972,-116.105345,2,341
MS,Meridian,39307,32.330793,-88.827844,2,342
OR,Stanfield,97875,45.780672,-119.217409,2,343
OR,Central Point,97502,42.402193,-122.914829,2,344
KY,Sonora,42776,37.52738,-85.932922,2,345
NC,WAYNESVILLE,28786,35.500644,-82.99509,2,346
NY,Newburgh,12550,41.51748,-74.06022,2,347
VA,Staunton,24401,38.153156,-79.078684,2,348
GA,Vienna,31092,32.093587,-83.793623,2,349
KY,Lebanon Junction,40150,37.853195,-85.729211,2,350
WY,Cheyenne,82007,41.111908,-104.863666,2,351
TN,Heiskel,37754,36.087523,-84.042629,2,352
TN,Murfreesboro,37127,35.775581,-86.328633,2,353
TN,Memphis,38118,35.048583,-89.925961,2,354
TN,Cornersville,37047,35.360804,-86.840796,2,355
IA,Clear Lake,50428,43.138257,-93.384461,2,356
MD,Grantsville,21536,39.67668,-79.15392,2,357
TN,Dickson,37055,36.083188,-87.428235,2,358
TN,Lebanon,37090,36.152343,-86.315832,2,359
TN,White Pine,37890,36.06164,-83.26011,2,360
TN,Nashville,37209,36.150761,-86.8641,2,361
GA,Rising Fawn,30738,34.782056,-85.444826,2,362
GA,Cordele,31015,31.946591,-83.765287,2,363
GA,Temple,30179,33.808273,-85.018501,2,364
GA,Madison,30650,33.590212,-83.477409,2,365
GA,Dalton,30721,34.784599,-84.932948,2,366
GA,Newnan,30263,33.393182,-84.823447,2,367
FL,Ocala,34482,29.229052,-82.306676,2,368
FL,Midway,32343,30.487891,-84.462951,2,369
LA,West Monroe,71292,32.444493,-92.203495,2,370
AR,West Memphis,72301,35.146563,-90.177352,2,371
AR,Russellville,72802,35.31758,-93.091084,2,372
TX,Orange,77630,30.081944,-93.758056,2,373
TX,Waco,76706,31.48032,-97.11588,2,374
TX,Dallas,75241,32.656089,-96.746634,2,375
TX,Fort Worth,76178,32.72528,-97.32056,2,376
TX,Anthony,79821,31.970939,-106.597447,2,377
TX,Amarillo,79118,35.06543,-101.852052,2,378
KY,Williamsburg,40769,36.744037,-84.165125,2,379
KY,Franklin,42134,36.728547,-86.572927,2,380
KY,Oak Grove,42262,36.677845,-87.447679,2,381
KY,Pendleton,40055,38.49504,-85.339571,2,382
AL,Priceville,35603,34.546718,-86.981852,2,383
MO,Hayti,63851,36.235589,-89.749057,2,384
MO,Higginsville,64037,39.033181,-93.707924,2,385
IN,Brazil,47834,39.52512,-87.1692,2,386
IN,Burns Harbor,46304,41.617037,-87.028793,2,387
IN,Daleville,47334,40.122017,-85.548158,2,388
IN,Haubstadt,47639,38.1846,-87.62592,2,389
IN,Hebron,46341,41.34042,-87.198181,2,390
OH,Belmont,43718,40.015424,-81.01562,2,391
SC,Gaffney,29341,35.09456,-81.677416,2,392
OH,London,43140,39.89106,-83.40534,2,393
OH,MARENGO,43334,40.3857,-82.82976,2,394
AL,Cottondale,35453,33.200553,-87.401063,2,395
FL,Wildwood,32097,30.661181,-81.63836,2,396
GA,Carnesville,30521,34.383201,-83.286493,2,397
GA,Calhoun,30701,34.495946,-84.931056,2,398
GA,Villa Rica,30180,33.708023,-84.932487,2,399
GA,Jackson,30233,33.294108,-83.965048,2,400
GA,Valdosta,31601,30.825593,-83.284447,2,401
GA,Kingsland,31548,30.790654,-81.711294,2,402
PA,Harrisburg,17112,40.33806,-76.80378,2,403
SC,Blacksburg,29702,35.11567,-81.513969,2,404
SC,Rock Hill,29730,34.929113,-81.022958,2,405
SC,Graniteville,29829,33.560576,-81.828149,2,406
SC,Hardeeville,29927,32.2813,-81.071015,2,407
OH,Beaver Dam,45808,40.830818,-83.969324,2,408
SC,St. George,29477,33.185354,-80.581025,2,409
SC,Winnsboro,29180,34.372149,-81.086971,2,410
SC,St. Matthews,29135,33.66187,-80.781778,2,411
AZ,Eloy,85231,32.75583,-111.55417,2,412
SC,Prosperity,29127,34.182431,-81.52094,2,413
SC,Bishopville,29010,34.21908,-80.27082,2,414
SC,Latta,29565,34.335502,-79.432246,2,415
AZ,Avondale,85323,33.429286,-112.345055,2,416
TN,White Pine,37890,36.06164,-83.26011,2,417
TN,Gordonsville,38563,36.172586,-85.931293,2,418
TN,Niota,37826,35.509859,-84.545622,2,419
TN,Monteagle,37356,35.219746,-85.850668,2,420
OK,Oklahoma City,73128,35.451515,-97.620639,2,421
VA,Wytheville,24382,36.94526,-81.089071,2,422
VA,South Boston,24592,36.709303,-78.90154,2,423
VA,Tom's Brook,22660,38.949385,-78.43084,2,424
VA,Raphine,24472,37.937785,-79.136378,2,425
VA,Skippers,23879,36.588846,-77.542319,2,426
VA,Disputanta,23842,37.15295,-77.237944,2,427
TX,San Antonio,78264,29.192675,-98.517416,2,428
IL,Gilman,60938,40.770329,-87.987922,2,429
OH,Canton,47706,37.95693,-87.558672,2,430
WI,Hudson,54023,44.9898,-92.56092,2,431
FL,Haines City,33845,28.110209,-81.629416,2,432
TX,Beasley,77417,29.47458,-95.97132,2,433
IL,Channahon,60410,41.436384,-88.187708,2,434
WV,Sutton,26601,38.67233,-80.687532,2,435
NM,Moriarty,87035,34.959132,-106.054681,2,436
IL,Woodhull,61490,41.178623,-90.315302,2,437
TX,Anna,75409,33.345806,-96.577245,2,438
IN,Leavenworth,47137,38.209645,-86.365045,2,439
TN,Cleveland,37311,35.15733,-84.87039,2,440
IL,Mt. Vernon,62864,38.31764,-88.909298,2,441
IL,Morris,60450,41.364155,-88.421363,2,442
NV,Winnemucca,89445,41.12556,-117.78672,2,443
TX,Tyler,75706,32.46451,-95.27839,2,444
TX,Cotulla,78014,28.424112,-99.237016,2,445
ND,Grand Forks,58201,47.912435,-97.052752,2,446
NM,Carlsbad,88220,32.397966,-104.241065,2,447
VA,Harrisonburg,22802,38.508585,-78.940514,2,448
AR,Caddo Valley,71923,34.085898,-93.045684,2,449
SC,St. George,29477,33.185354,-80.581025,2,450
NY,Rotterdam,12306,42.792392,-73.984961,2,451
IA,Brooklyn,52211,41.729084,-92.44554,2,452
IA,Atalissa,57270,45.864739,-97.284259,2,453
AL,Lincoln,35096,33.593989,-86.132344,2,454
OK,Atoka,74525,34.385284,-96.13211,2,455
FL,Jasper,32052,30.517247,-82.950317,2,456
WV,Morgantown,26508,39.589081,-79.896108,2,457
OR,Klamath Falls,97601,42.221688,-121.796627,2,458
AZ,Yuma,85367,32.655369,-114.383585,2,459
OK,Enid,73701,36.405255,-97.874299,2,460
TX,Jarrell,76537,30.78888,-97.60602,2,461
UT,Perry,84302,41.53608,-112.0488,2,462
UT,Beaver,84713,38.298252,-112.716345,2,463
UT,Scipio,84656,39.252203,-112.101774,2,464
ND,Mandan,58554,46.828248,-100.892053,2,465
IL,Springfield,62715,39.803359,-89.646811,2,466
NV,Primm,89019,35.804011,-115.635842,2,467
IL,Lincoln,62656,40.153604,-89.369109,2,468
IL,Ottawa,61350,41.333611,-88.878056,2,469
PA,Breezewood,15533,39.987619,-78.243556,2,470
PA,Duncannon,17020,40.391761,-77.045102,2,471
PA,Myerstown,17067,40.377563,-76.31874,2,472
MS,Senatobia,38668,34.65318,-89.86986,2,473
IL,New Berlin,62670,39.734757,-89.908806,2,474
PA,Pine Grove,17963,40.54902,-76.40412,2,475
IL,Dixon,61021,41.838841,-89.492572,2,476
KS,Kansas City,66106,39.06252,-94.71774,2,477
IL,Springfield,62707,39.777482,-89.650787,2,478
IL,Champaign,61821,40.106564,-88.283856,2,479
WI,Cottage Grove,53527,43.070701,-89.198254,2,480
IL,Tuscola,61953,39.796141,-88.282209,2,481
IL,Mendota,61342,41.540805,-89.106262,2,482
IN,Brazil,47834,39.52512,-87.1692,2,483
IA,Elk Run Heights,50707,42.48288,-92.27706,2,484
MO,Fenton,63026,38.501758,-90.456792,2,485
IL,Okawville,62271,38.41812,-89.52462,2,486
IL,Rockford,61108,42.251933,-89.029605,2,487
IL,South Beloit,61080,42.47718,-88.97166,2,488
IL,Winnebago,61088,42.273946,-89.250627,2,489
WI,Oakdale,54660,43.9941,-90.45972,2,490
IL,Rochelle,61068,41.94822,-89.05536,2,491
IL,Loves Park,61111,42.3281,-89.026827,2,492
IL,Princeton,61356,41.371332,-89.463511,2,493
IN,Greenwood,46134,39.61361,-86.10667,2,494
IL,Hampshire,60140,42.11652,-88.50222,2,495
WI,East Troy,53120,42.803402,-88.415506,2,496
IN,Lake Station,46405,41.56853,-87.270213,2,497
MO,St Robert,65584,37.828919,-92.200348,2,498
NC,Mount Airy,27030,36.490645,-80.628907,2,499
ND,Minot,58701,48.230821,-101.294119,2,500
TX,Cisco,76437,32.387328,-98.981735,2,501
OH,Lebanon,45036,39.446127,-84.210158,2,502
TX,Ft. Stockton,79735,30.887216,-102.881646,2,503
TX,George West,78022,28.328968,-98.118165,2,504
PA,Milton,17847,41.014839,-76.846934,2,505
OK,Choctaw,73020,35.461457,-97.263145,2,506
NM,Hobbs,88240,32.725126,-103.140536,2,507
TX,Big Spring,79720,32.51461,-101.57574,2,508
TX,Von Ormy,78073,29.254866,-98.613495,2,509
MO,Charleston,63834,36.92226,-89.29548,2,510
IA,Williams,50271,42.488487,-93.542349,2,511
TX,Hempstead,77445,30.07212,-96.08124,2,512
GA,St. Mary's,31558,30.754348,-81.561603,2,513
MN,Northfield,55057,44.445033,-93.181524,2,514
IL,Marshall,62441,39.4002,-87.69468,2,515
TX,Odessa,79766,31.812902,-102.338633,2,516
MN,Inver Groves,55007,45.946447,-92.864586,2,517
WA,Ferndale,98248,48.8583,-122.606024,2,518
OR,Auora,97002,45.232302,-122.807794,2,519
MS,Moss Point,39563,30.407564,-88.530167,2,520
ND,Williston,58801,48.41687,-103.82386,2,521
MN,Alexandria,56308,45.892797,-95.365967,2,522
CO,Grand Junction,81505,39.107861,-108.607362,2,523
AZ,Tuscon,85756,32.136236,-111.085365,2,524
IA,Sioux City,51111,42.425511,-96.375133,2,525
IL,Marion,62959,37.722939,-88.873368,2,526
MI,Port Huron,48074,42.944217,-82.559913,2,527
OH,Chillicothe,45601,39.328095,-82.982598,2,528
SD,Murdo,57559,43.958192,-100.699101,2,529
AL,McCalla,35111,33.268815,-87.144228,2,530
AL,Birmingham,35207,33.560963,-86.818624,2,531
AL,Dothan,36301,31.19982,-85.41768,2,532
AL,Hope Hull,36043,32.230319,-86.367123,2,533
AR,Russellville,72801,35.282948,-93.138428,2,534
AR,Texarkana,71854,33.436576,-94.019848,2,535
AR,West Memphis,72301,35.146563,-90.177352,2,536
AZ,Ehrenberg,85334,33.620992,-114.496847,2,537
AZ,Eloy,85231,32.75583,-111.55417,2,538
AZ,Kingman,86401,35.52402,-113.99268,2,539
AZ,Phoenix,85043,33.439449,-112.191012,2,540
AZ,Winslow,86047,35.27538,-110.31582,2,541
CA,Bakersfield,93308,35.54676,-119.04402,2,542
CA,Barstow,92311,34.887322,-117.037597,2,543
CA,Frazier Park,93243,34.82988,-118.86348,2,544
CA,Lodi,95242,38.127032,-121.322128,2,545
CA,Ripon,95366,37.778832,-121.124563,2,546
CO,Aurora,80011,39.74165,-104.791421,2,547
PA,Smithton,15479,40.139958,-79.727931,2,548
CO,Limon,80828,39.261367,-103.688061,2,549
FL,St. Lucie,34945,27.42497,-80.450133,2,550
FL,Quincy,32343,30.487891,-84.462951,2,551
FL,Dade City,33576,28.324246,-82.319355,2,552
FL,Tampa,33584,27.990282,-82.285514,2,553
FL,St Augustine,32086,29.759403,-81.30397,2,554
GA,Brunswick,31523,31.174003,-81.501377,2,555
GA,Carnesville,30521,34.383201,-83.286493,2,556
GA,Jackson,30233,33.294108,-83.965048,2,557
GA,Lake Park,31636,30.6871,-83.20203,2,558
GA,Resaca,30735,34.593674,-84.928381,2,559
GA,Union Point,30669,33.64458,-83.085879,2,560
GA,Temple,30179,33.808273,-85.018501,2,561
IA,Davenport,52806,41.571562,-90.60316,2,562
IA,Evansdale,50707,42.48288,-92.27706,2,563
ID,Caldwell,83605,43.658798,-116.716481,2,564
ID,Post Falls,83854,47.74092,-116.9448,2,565
ID,Twin Falls,83338,42.709237,-114.464322,2,566
ID,McCammon,83250,42.643759,-112.195942,2,567
IL,Alorton,62207,38.6103,-90.15618,2,568
IL,Effingham,62401,39.12264,-88.58796,2,569
IL,LaSalle,61301,41.35563,-89.094865,2,570
IL,Pontoon Beach,62040,38.761356,-90.096335,2,571
IL,South Beloit,61080,42.47718,-88.97166,2,572
IN,Haubstadt,47639,38.1846,-87.62592,2,573
IN,Indianapolis,46217,39.667568,-86.198814,2,574
IN,Lake Station,46405,41.56853,-87.270213,2,575
IN,Lebanon,46052,40.051603,-86.470531,2,576
IN,Lowell,46356,41.284559,-87.416071,2,577
IN,Spiceland,47385,39.837003,-85.438958,2,578
IN,Whiteland,46184,39.555508,-86.091336,2,579
KS,Dodge City,67801,37.757785,-100.018943,2,580
KS,Emporia,66801,38.409293,-96.189099,2,581
KS,Salina,67401,38.829855,-97.616195,2,582
KY,Catlettsburg,41129,38.373377,-82.628036,2,583
KY,Franklin,42134,36.728547,-86.572927,2,584
KY,Oak Grove,42262,36.677845,-87.447679,2,585
KY,Waddy,40076,38.149878,-85.06148,2,586
KY,Walton,41094,38.884714,-84.634472,2,587
LA,Greenwood,71033,32.437841,-93.988179,2,588
MI,Benton Harbor,49022,42.110957,-86.403985,2,589
MI,Grand Ledge,48837,42.741897,-84.743758,2,590
MI,Saginaw,48601,43.405416,-83.900719,2,591
MO,Joplin,64804,37.064704,-94.509874,2,592
MO,Matthews,63867,36.757869,-89.587967,2,593
MO,Peculiar,64078,38.725247,-94.455413,2,594
MO,Sullivan,63080,38.26128,-91.14156,2,595
MO,Warrenton,63383,38.77122,-91.22436,2,596
MO,Wayland,63472,40.397041,-91.582082,2,597
MS,Gulfport,39503,30.4731,-89.15382,2,598
MS,Olive Branch,38654,34.950007,-89.862634,2,599
MS,Pearl,39208,32.27172,-90.10494,2,600
NC,Graham,27258,36.061861,-79.339937,2,601
NC,Kenly,27542,35.590858,-78.122283,2,602
ND,Beach,58621,46.931605,-104.007445,2,603
ND,Fargo,58104,46.819706,-96.808039,2,604
NE,Gretna,68028,41.127216,-96.250421,2,605
NE,No. Platte,69101,41.133414,-100.771684,2,606
NJ,Carney's Point,8069,39.70704,-75.4467,2,607
NM,Albuquerque,87105,35.043217,-106.694148,2,608
NM,Lordsburg,88045,32.347258,-108.708739,2,609
NM,Tucumcari,88401,35.169863,-103.720274,2,610
NV,Wells,89835,41.108927,-114.965942,2,611
NY,Pembroke,14036,42.972006,-78.383842,2,612
OH,Austinburg,44010,41.760517,-80.850566,2,613
OH,Beaverdam,45808,40.830818,-83.969324,2,614
NC,Haw River,27258,36.061861,-79.339937,2,615
OH,Berkshire,43074,40.269436,-82.843951,2,616
OH,Hubbard,44425,41.163813,-80.581187,2,617
NC,Candor,27229,35.226802,-79.791427,2,618
OH,Jeffersonville,43128,39.65666,-83.573926,2,619
OH,Millersport,43046,39.89895,-82.526218,2,620
NC,Kenly,27542,35.590858,-78.122283,2,621
NC,Warsaw,28398,34.98054,-78.09456,2,622
OH,Lake Township,43551,41.542639,-83.597702,2,623
OK,Ardmore,73401,34.33249,-97.33532,2,624
OK,Checotah,74426,35.4177,-95.55378,2,625
OK,Oklahoma City,73128,35.451515,-97.620639,2,626
OK,Edmond,73013,35.622482,-97.470627,2,627
OK,Sayre,73662,35.299435,-99.638752,2,628
OK,Tulsa,74116,36.172746,-95.841579,2,629
PA,Brookville,15825,41.1741,-79.0674,2,630
PA,Carlisle,17013,40.203056,-77.313611,2,631
PA,Mill Hall,17751,41.106295,-77.488495,2,632
PA,New Milford,18834,41.873819,-75.726137,2,633
SC,Blacksburg,29702,35.11567,-81.513969,2,634
SC,Columbia,29203,34.09818,-81.03618,2,635
SC,Latta,29565,34.335502,-79.432246,2,636
SC,Rock Hill,29730,34.929113,-81.022958,2,637
MO,Foristell,63348,38.790081,-90.936659,2,638
SD,Sioux Falls,57107,43.56535,-96.796958,2,639
MO,Villa Ridge,63089,38.463535,-90.874188,2,640
MO,Pevely,63070,38.28378,-90.44046,2,641
IN,Gary,46406,41.587301,-87.411577,2,642
TN,Fairview,37062,35.970047,-87.127121,2,643
IN,Indianapolis,46217,39.667568,-86.198814,2,644
TN,Knoxville,37932,35.920159,-84.174433,2,645
TX,Amarillo,79118,35.06543,-101.852052,2,646
TX,Anthony,79821,31.970939,-106.597447,2,647
TX,Baytown,77521,29.795863,-94.973054,2,648
TX,Dallas,75241,32.656089,-96.746634,2,649
TX,Edinburg,78539,26.33202,-98.16384,2,650
TX,El Paso,79927,31.65522,-106.22826,2,651
TX,Houston,77090,30.011863,-95.446521,2,652
TX,Laredo,78045,27.594073,-99.51285,2,653
IN,Spiceland,47385,39.837003,-85.438958,2,654
OH,Girard,44420,41.157789,-80.68793,2,655
TX,Lubbock,79401,33.584601,-101.846676,2,656
TX,New Caney,77357,30.13446,-95.1807,2,657
TX,Orange,77630,30.081944,-93.758056,2,658
TX,Pecos,79772,31.375544,-103.523013,2,659
TX,San Antonio,78244,29.479985,-98.352567,2,660
TX,Tye,79563,32.450724,-99.867551,2,661
TX,Waco,76711,31.512973,-97.16358,2,662
TX,Brookshire,77423,29.79894,-95.962284,2,663
TX,Wichita Falls,76301,33.911774,-98.4986,2,664
UT,Lake Point,84074,40.57128,-112.31862,2,665
UT,Nephi,84648,39.710909,-111.844866,2,666
UT,Ogden,84401,41.2198,-112.016418,2,667
UT,Salt Lake City,84119,40.692079,-111.947832,2,668
UT,Springville,84663,40.162967,-111.60305,2,669
UT,Willard,84340,41.403126,-112.0361,2,670
VA,Carmel Church,22546,38.007807,-77.545616,2,671
VA,Fort Chiswell,24360,36.92448,-80.9118,2,672
VA,Winchester,22624,39.247394,-78.092824,2,673
VA,Ruther Glen,22546,38.007807,-77.545616,2,674
VA,Wytheville,24382,36.94526,-81.089071,2,675
WI,Black River Falls,54615,44.290491,-90.846708,2,676
WY,Casper,82609,42.84645,-106.274603,2,677
WY,Cheyenne,82007,41.111908,-104.863666,2,678
WY,Cokeville,83114,42.1,-111,2,679
WY,Evanston,82930,41.249255,-110.959297,2,680
WY,Gillette,82718,44.266688,-105.525118,2,681
WY,Rawlins,82301,41.78887,-107.199009,2,682
WY,Rock Springs,82901,41.59755,-109.234183,2,683
CA,Thousand Palms,92276,33.810639,-116.376227,2,684
MO,Kansas City,64120,39.12391,-94.5372,2,685
NV,Winnemucca,89445,41.12556,-117.78672,2,686
UT,North Salt Lake,84054,40.837299,-111.919323,2,687
UT,Richfield,84701,38.67516,-111.98982,2,688
UT,Snowville,84336,41.839382,-112.595114,2,689
UT,St. George,84790,37.080345,-113.575391,2,690
ID,East Boise,83705,43.580123,-116.219041,2,691
CO,Steamboat Springs,80487,40.488148,-106.868862,2,692
MD,Northeast,21901,39.590075,-75.955936,2,693
NC,Mcleansville,27301,36.113388,-79.673916,2,694
NC,Conover,28613,35.71182,-81.209282,2,695
NC,Troutman,28166,35.699084,-80.889947,2,696
NC,Salisbury,28147,35.667513,-80.533434,2,697
NC,Monroe,28110,35.010982,-80.551224,2,698
NM,Artesia,88210,32.835208,-104.413737,2,699
NM,Artesia,88210,32.835208,-104.413737,2,700
NM,Hobbs,88240,32.725126,-103.140536,2,701
NM,Eunice,88231,32.441225,-103.165099,2,702
TX,Seminole,79360,32.717704,-102.674594,2,703
TX,Andrews,79714,32.32711,-102.548597,2,704
TX,Midland,79701,31.989057,-102.0819,2,705
TX,Midland,79701,31.989057,-102.0819,2,706
TX,Odessa,79764,31.879344,-102.43678,2,707
TX,Odessa,79761,31.854911,-102.352859,2,708
TX,Big Spring,79721,32.250099,-101.457516,2,709
TX,Crane,79731,31.392825,-102.35161,2,710
TX,Ozona,76943,30.71096,-101.211744,2,711
TX,Sonora,76950,30.568862,-100.642173,2,712
TX,Kilgore,75662,32.40024,-94.89018,2,713
NM,Hobbs,88240,32.725126,-103.140536,2,714
PA,Pine Grove,17963,40.54902,-76.40412,2,715
FL,Miami,33178,25.85677,-80.41599,2,716
FL,Miami,33194,25.758515,-80.391867,2,717
MD,Elkton,21921,39.626375,-75.849604,2,718
VA,Ruther Glen,22546,38.007807,-77.545616,2,719
CA,Sacramento,95833,38.6172,-121.497424,2,720
NJ,Montague,7827,41.30616,-74.7489,2,721
IN,Fort Wayne,46808,41.10106,-85.170092,2,722
CT,North Stonington,6359,41.462417,-71.870272,2,723
TX,Canton,75103,32.552553,-95.870563,2,724
SC,Campobello,29322,35.118004,-82.126556,2,725
NC,"Dunn, NC",28334,35.310491,-78.619199,2,726
IL,Grayville,62844,38.235615,-88.015319,2,727
TX,Snyder,79549,32.76468,-100.85892,2,728
TX,Tulia,79088,34.65164,-101.49838,2,729
IL,Mt. Vernon,62864,38.31764,-88.909298,2,730
KY,Kuttawa,42055,37.058468,-88.128269,2,731
NJ,Ledgewood,7852,40.88382,-74.655214,2,732
UT,Green River,84525,39.000232,-110.160774,2,733
IA,Avoca,51521,41.477491,-95.339627,2,734
TX,Eagle Pass,78852,28.715762,-100.492839,2,735
MI,Westhaven,48183,42.134388,-83.215861,2,736
NH,Bow,3304,43.139561,-71.545695,2,737
FL,Miami Gardens,23434,36.731942,-76.60187,2,738
VA,Emporia,23847,36.695563,-77.543942,2,739
VA,South Hill,23970,36.727549,-78.134748,2,740
NC,Dunn,28334,35.310491,-78.619199,2,741
NE,Elm Creek,68836,40.718701,-99.373782,2,742
NE,Grand Island,68801,40.92332,-98.33643,2,743
KS,Salina,67401,38.829855,-97.616195,2,744
NE,Big Springs,69122,41.109609,-102.144422,2,745
NE,Wood River,68883,40.819408,-98.59785,2,746
IA,Altoona,50009,41.649151,-93.469244,2,747
SD,Rapid City,57702,44.063037,-103.280916,2,748
KS,Colby,67701,39.394672,-101.047317,2,749
TN,Chattanooga,37421,35.02529,-85.144734,2,750
OK,El Reno,73036,35.528207,-97.953685,2,751
IL,Danville,61834,40.130702,-87.629223,2,752
IN,Clarkesville,47129,38.316146,-85.769135,2,753
KY,Nicholasville,40356,37.883596,-84.566606,2,754
NE,Omaha,68127,41.204126,-96.054148,2,755
NM,Hobbs,88240,32.725126,-103.140536,2,756
NC,Cleveland,27013,35.745026,-80.676769,2,757
ND,Fargo,58102,46.893312,-96.798609,2,758
TX,Midland,79701,31.989057,-102.0819,2,759
TX,Midland,79701,31.989057,-102.0819,2,760
TN,Nashville,37210,36.138854,-86.736367,2,761
VA,Abingdon,24210,36.707838,-81.978013,2,762
LA,Shreveport,71108,32.441723,-93.787148,2,763
TX,Midland,79706,31.989044,-102.073733,2,764
TX,Von Ormy,78073,29.254866,-98.613495,2,765
CA,Bakersfield,93308,35.54676,-119.04402,2,766
NC,Durham,27707,35.964557,-78.940527,4,767
NC,Greensboro,27406,36.021374,-79.767916,4,768
NC,Sanford,27330,35.459277,-79.168611,4,769
SC,Hilton Head Island,29926,32.234951,-80.735624,4,770
SC,Elgin,29045,34.180379,-80.797725,4,771
NC,Raleigh,27606,35.754707,-78.722559,4,772
SC,Irmo,29063,34.122153,-81.195991,4,773
NC,Sanford,27332,35.462395,-79.172874,4,774
SC,Myrtle Beach,29572,33.762507,-78.798962,4,775
SC,N Myrtle Beach,29582,33.82742,-78.682495,4,776
NC,High Point,27261,35.975341,-79.999493,4,777
SC,Hilton Head Island,29926,32.234951,-80.735624,4,778
NC,Wilmington,28412,34.142287,-77.915225,4,779
NC,Sanford,27330,35.459277,-79.168611,4,780
SC,Summerville,29483,33.017824,-80.21135,4,781
NC,Wilmington,28405,34.28172,-77.82474,4,782
NC,Fayetteville,28314,35.05772,-79.003491,4,783
SC,Little River,29566,33.885716,-78.637355,4,784
NC,Wilmington,28401,34.229055,-77.935953,4,785
NC,Southern Pines,28387,35.174091,-79.390844,4,786
SC,Isle Of Palms,29451,32.795877,-79.769665,4,787
SC,Summerville,29483,33.017824,-80.21135,4,788
SC,Simpsonville,29681,34.777584,-82.128196,4,789
SC,Hilton Head Island,29926,32.234951,-80.735624,4,790
SC,Summerville,29485,32.975069,-80.180159,4,791
SC,Georgetown,29440,33.52698,-79.29846,4,792
SC,Summerville,29485,32.975069,-80.180159,4,793
SC,N Charleston,29406,32.92896,-80.02842,4,794
NC,Cary,27518,35.756619,-78.78153,4,795
NC,Hillsborough,27278,36.07458,-79.07766,4,796
SC,Charleston,29412,32.71926,-79.95108,4,797
NC,Cary,27518,35.756619,-78.78153,4,798
NC,Winterville,28590,35.535325,-77.395248,4,799
NC,Durham,27713,35.916567,-78.917612,4,800
SC,Mt. Pleasant,29464,32.82026,-79.846061,4,801
SC,Lexington,29072,33.97986,-81.26052,4,802
SC,N Charleston,29406,32.92896,-80.02842,4,803
NC,Apex,27523,35.713062,-78.823781,4,804
SC,Johns Island,29455,32.691291,-80.091155,4,805
SC,Columbia,29229,34.127676,-80.896127,4,806
NC,Morrisville,27560,35.825795,-78.836037,4,807
NC,Burlington,27215,36.03342,-79.49088,4,808
SC,Myrtle Beach,29577,33.6606,-78.92394,4,809
SC,Hilton Head Island,29928,32.161512,-80.752518,4,810
NC,Concord,28025,35.400953,-80.583807,4,811
NC,Greensboro,27405,36.11058,-79.7406,4,812
SC,Beaufort,29906,32.432733,-80.673074,4,813
NC,Raleigh,27615,35.889314,-78.637839,4,814
SC,Mt. Pleasant,29466,32.792155,-79.863357,4,815
SC,Mt. Pleasant,29464,32.82026,-79.846061,4,816
SC,Charleston,29407,32.800052,-80.010928,4,817
SC,Ravenel,29470,32.791062,-80.221919,4,818
SC,Johns Island,29455,32.691291,-80.091155,4,819
SC,Ravenel,29470,32.791062,-80.221919,4,820
SC,Beaufort,29906,32.432733,-80.673074,4,821
SC,Myrtle Beach,29577,33.6606,-78.92394,4,822
SC,Myrtle Beach,29588,33.676817,-79.014238,4,823
SC,Ridgeland,29936,32.481598,-80.984342,4,824
NC,Cary,27518,35.756619,-78.78153,4,825
NC,Castle Hayne,28429,34.325657,-77.908843,4,826
NC,Raleigh,27606,35.754707,-78.722559,4,827
NC,Goldsboro,27530,35.37996,-78.09786,4,828
NC,Goldsboro,27534,35.370546,-77.930853,4,829
NC,Goldsboro,27534,35.370546,-77.930853,4,830
NC,Goldsboro,27530,35.37996,-78.09786,4,831
NC,Jacksonville,28546,34.774523,-77.381406,4,832
NC,Kenly,27542,35.590858,-78.122283,4,833
NC,Wilmington,28403,34.204361,-77.883608,4,834
NC,Wilson,27896,35.75562,-77.944711,4,835
NC,Carrboro,27510,35.915484,-79.078537,4,836
FL,Belleview,34420,29.044347,-82.036592,4,837
FL,Jacksonville,32246,30.305263,-81.511694,4,838
FL,Jacksonville,32225,30.348896,-81.50107,4,839
FL,Gainesville,32607,29.643647,-82.414335,4,840
FL,Gainesville,32608,29.602269,-82.399138,4,841
FL,Baldwin,32234,30.219367,-81.997401,4,842
FL,Newberry,32669,29.647073,-82.599723,4,843
FL,Jacksonville,32258,30.139567,-81.544736,4,844
FL,Williston,32696,29.388078,-82.453512,4,845
FL,Jacksonville Beach,32250,30.28122,-81.41682,4,846
FL,Orlando,32826,28.580464,-81.186488,4,847
FL,Kissimmee,34743,28.328203,-81.354643,4,848
FL,Jacksonville,32234,30.219367,-81.997401,4,849
FL,Flagler Beach,32136,29.449219,-81.119771,4,850
FL,Palm Coast,32137,29.54147,-81.226479,4,851
FL,Jacksonville,32224,30.275858,-81.461221,4,852
FL,Bunnell,32110,29.466087,-81.247622,4,853
FL,Jacksonville,32256,30.191339,-81.49456,4,854
FL,St Augustine,32084,29.88516,-81.31398,4,855
FL,Citra,32113,29.386926,-82.118936,4,856
FL,Deltona,32738,28.910545,-81.192559,4,857
FL,Kissimmee,34744,28.277758,-81.350625,4,858
FL,Palm Coast,32137,29.54147,-81.226479,4,859
FL,Debary,32713,28.882535,-81.306446,4,860
FL,Jacksonville,32226,30.466832,-81.547848,4,861
FL,Orlando,32825,28.522353,-81.227289,4,862
FL,St Augustine,32084,29.88516,-81.31398,4,863
FL,Jacksonville,32256,30.191339,-81.49456,4,864
FL,Jacksonville,32256,30.191339,-81.49456,4,865
FL,Palm Coast,32164,29.532413,-81.230479,4,866
FL,Green Cove Springs,32043,29.958919,-81.736288,4,867
FL,Jacksonville,32218,30.461492,-81.625786,4,868
FL,Apopka,32712,28.736116,-81.538717,4,869
FL,Palm Coast,32137,29.54147,-81.226479,4,870
FL,Melbourne,32940,28.22581,-80.688308,4,871
FL,Starke,32091,29.949586,-82.112253,4,872
FL,Newberry,32669,29.647073,-82.599723,4,873
FL,Jacksonville,32224,30.275858,-81.461221,4,874
FL,Middleburg,32068,30.092929,-81.867697,4,875
FL,Gainesville,32606,29.696881,-82.411723,4,876
FL,Gainesville,32608,29.602269,-82.399138,4,877
FL,Gainesville,32608,29.602269,-82.399138,4,878
FL,Gainesville,32653,29.66249,-82.325135,4,879
FL,Archer,32618,29.544826,-82.514549,4,880
FL,Gainesville,32641,29.653504,-82.32719,4,881
FL,Gainesville,32608,29.602269,-82.399138,4,882
FL,Gainesville,32606,29.696881,-82.411723,4,883
FL,Gainesville,32605,29.680283,-82.372095,4,884
FL,Gainesville,32601,29.648924,-82.304742,4,885
FL,Keystone Heights,32656,29.798149,-81.989223,4,886
FL,Atlantic Beach,32233,30.35562,-81.51846,4,887
FL,St Augustine,32086,29.759403,-81.30397,4,888
FL,Jacksonville,32259,30.091233,-81.625682,4,889
FL,Jacksonville,32218,30.461492,-81.625786,4,890
FL,Gainesville,32601,29.648924,-82.304742,4,891
FL,Interlachen,32148,29.641935,-81.900984,4,892
FL,Ocala,34482,29.229052,-82.306676,4,893
FL,Ocala,34472,29.091917,-81.98932,4,894
FL,Ocala,34471,29.17026,-82.091441,4,895
FL,Gainesville,32609,29.695004,-82.299594,4,896
FL,Panama City,32401,30.160005,-85.649607,4,897
FL,Jacksonville,32218,30.461492,-81.625786,4,898
FL,Oxford,34484,28.92312,-82.043905,4,899
FL,Tallahassee,32301,30.4293,-84.2571,4,900
FL,St. Augustine,32095,29.916697,-81.339048,4,901
SC,Spartanburg,29306,34.928003,-81.908736,4,902
SC,Inman,29349,35.061669,-82.059864,4,903
SC,Chester,29706,34.711411,-81.207675,4,904
SC,Union,29379,34.714757,-81.621133,4,905
SC,Spartanburg,29302,34.957122,-81.863011,4,906
NC,Cary,27518,35.756619,-78.78153,4,907
SC,Myrtle Beach,29579,33.655004,-78.945276,4,908
SC,Charleston,29401,32.779122,-79.939806,4,909
SC,Charleston,29403,32.798426,-79.948096,4,910
SC,Mt. Pleasant,29464,32.82026,-79.846061,4,911
NC,Concord,28027,35.411756,-80.646757,4,912
SC,Myrtle Beach,29579,33.655004,-78.945276,4,913
MS,Clarksdale,38614,34.175236,-90.640469,4,914
MS,Winona,38967,33.483835,-89.732137,4,915
MS,Grenada,38901,33.783216,-89.806975,4,916
MS,Grenada,38901,33.783216,-89.806975,4,917
MS,Batesville,38606,34.316846,-89.949955,4,918
MS,Pontotoc,38863,34.22568,-88.97454,4,919
MS,New Albany,38652,34.491548,-89.012762,4,920
MS,Pontotoc,38863,34.22568,-88.97454,4,921
MS,Oxford,38655,34.35036,-89.51898,4,922
MS,Batesville,38606,34.316846,-89.949955,4,923
AL,Midland City,36350,31.278807,-85.501242,4,924
AL,Dothan,36303,31.25424,-85.3989,4,925
NC,Charlotte,28262,35.320146,-80.741193,4,926
SC,Summerville,29483,33.017824,-80.21135,4,927
AL,Theodore,36582,30.532137,-88.179287,4,928
AL,Gulf Shores,36542,30.274095,-87.715267,4,929
AL,Theodore,36582,30.532137,-88.179287,4,930
AL,Grand Bay,36541,30.490561,-88.330633,4,931
AL,Brewton,36426,31.209444,-87.218333,4,932
AL,East Brewton,36426,31.209444,-87.218333,4,933
AL,Monroeville,36460,31.514812,-87.327625,4,934
AL,Bay Minette,36507,30.874562,-87.775538,4,935
AL,Saraland,36571,30.822782,-88.095227,4,936
AL,Mobile,36619,30.593684,-88.184484,4,937
AL,Orange Beach,36561,30.296786,-87.548627,4,938
AL,Mobile,36695,30.647608,-88.237461,4,939
AL,Foley,36535,30.398083,-87.704195,4,940
AL,Mobile,36608,30.692961,-88.194383,4,941
FL,Pensacola,32502,30.423197,-87.226657,4,942
FL,Pensacola,32534,30.525975,-87.279037,4,943
FL,Pensacola,32534,30.525975,-87.279037,4,944
MS,Ocean Spring,39532,30.461218,-88.949246,4,945
LA,Slidell,70461,30.268846,-89.678399,4,946
NC,Boone,28607,36.21864,-81.6546,4,947
KS,Cimarron,67835,37.90458,-100.33278,4,948
KS,Goodland,67735,39.348821,-101.712088,4,949
KS,Andover,67002,37.700039,-97.13831,4,950
KS,Emporia,66801,38.409293,-96.189099,4,951
KS,Grantville,66429,39.094005,-95.527752,4,952
KS,Andover,67002,37.700039,-97.13831,4,953
KS,Garden City,67846,37.97343,-100.849523,4,954
KS,Liberal,67901,37.041883,-100.928884,4,955
MO,Lee's Summit,64063,38.917563,-94.362282,4,956
KS,Dodge City,67801,37.757785,-100.018943,4,957
MO,Kansas City,64131,38.967545,-94.573365,4,958
KS,Olathe,66061,38.884071,-94.870529,4,959
KS,Lawrence,66046,38.943832,-95.255319,4,960
KS,Wichita,67226,37.742159,-97.242969,4,961
KS,Wichita,67206,37.703526,-97.234538,4,962
KS,Augusta,67010,37.691488,-96.976061,4,963
KS,Wichita,67209,37.66319,-97.422577,4,964
KS,Lawrence,66046,38.943832,-95.255319,4,965
KS,Lawrence,66044,38.962471,-95.254516,4,966
KS,Park City,67219,37.756398,-97.317064,4,967
NC,Pembroke,28372,34.682421,-79.194731,4,968
FL,Palm Bay,32909,27.969161,-80.647489,4,969
SC,Conway,29526,33.832026,-79.043531,4,970
FL,Lake Mary,32746,28.75992,-81.34584,4,971
FL,Hawthorne,32640,29.591884,-82.112532,4,972
FL,Sanford,32771,28.79419,-81.297139,4,973
FL,Port Orange,32127,29.110341,-80.980002,4,974
FL,Deland,32724,29.04151,-81.285829,4,975
FL,Deland,32720,29.028004,-81.325835,4,976
FL,Ormond Beach,32174,29.289955,-81.123815,4,977
FL,Weirsdale,32195,28.98182,-81.917908,4,978
FL,Sanford,32771,28.79419,-81.297139,4,979
FL,Minneola,34715,28.592359,-81.799392,4,980
FL,Deland,32720,29.028004,-81.325835,4,981
FL,Oakland,34787,28.532903,-81.590667,4,982
FL,East Palatka,32131,29.664677,-81.563252,4,983
FL,Eustis,32736,28.8899,-81.51475,4,984
FL,Summerfield,34491,28.991165,-82.046372,4,985
FL,Ocala,34475,29.226341,-82.159076,4,986
FL,Ocala,34476,29.085582,-82.193215,4,987
FL,Davenport,33897,28.199309,-81.61863,4,988
FL,Winter Springs,32708,28.68102,-81.2808,4,989
FL,Orlando,32826,28.580464,-81.186488,4,990
FL,Davenport,33897,28.199309,-81.61863,4,991
FL,Orange City,32763,28.943912,-81.301782,4,992
FL,Palatka,32177,29.644139,-81.659574,4,993
FL,Eustis,32736,28.8899,-81.51475,4,994
FL,St Augustine,32086,29.759403,-81.30397,4,995
FL,Silver Springs,34488,29.225427,-81.949001,4,996
FL,Ocala,34470,29.203104,-82.091918,4,997
FL,Sanford,32771,28.79419,-81.297139,4,998
FL,Tavares,32778,28.801667,-81.736253,4,999
FL,New Smyrna Beach,32168,29.002944,-81.017002,4,1000
FL,Altoona,32702,29.014274,-81.624817,4,1001
FL,Oviedo,32765,28.648105,-81.210071,4,1002
FL,Orlando,32825,28.522353,-81.227289,4,1003
FL,Debary,32713,28.882535,-81.306446,4,1004
FL,Ormond Beach,32174,29.289955,-81.123815,4,1005
FL,St Augustine,32080,29.832017,-81.272761,4,1006
FL,Port Orange,32128,29.13051,-81.118481,4,1007
FL,Palatka,32177,29.644139,-81.659574,4,1008
FL,Oviedo,32732,28.745894,-81.119322,4,1009
FL,Umatilla,32784,28.92794,-81.664305,4,1010
FL,Ocoee,34761,28.580595,-81.539393,4,1011
FL,Osteen,32764,28.848035,-81.14074,4,1012
FL,Belleview,34420,29.044347,-82.036592,4,1013
FL,Ocala,34475,29.226341,-82.159076,4,1014
FL,Deland,32724,29.04151,-81.285829,4,1015
FL,Ocala,34481,29.134462,-82.331561,4,1016
NC,Hope Mills,28306,35.010174,-78.930528,4,1017
NC,Fayetteville,28311,35.128576,-78.897217,4,1018
NC,Spring Lake,28390,35.175116,-78.976743,4,1019
NC,Fayetteville,28303,35.081833,-78.962365,4,1020
NC,Spring Lake,28390,35.175116,-78.976743,4,1021
NC,Newton,28658,35.658361,-81.233412,4,1022
NC,Fayetteville,28314,35.05772,-79.003491,4,1023
NC,Fayetteville,28306,35.010174,-78.930528,4,1024
NC,Fayetteville,28304,35.029744,-78.970982,4,1025
NC,Fayetteville,28312,35.066291,-78.866574,4,1026
NC,Fayetteville,28306,35.010174,-78.930528,4,1027
NC,Fayetteville,28311,35.128576,-78.897217,4,1028
NC,Fayetteville,28303,35.081833,-78.962365,4,1029
NC,Indian Trail,28079,35.098742,-80.631203,4,1030
NC,Monroe,28110,35.010982,-80.551224,4,1031
NC,Hope Mills,28348,34.967775,-78.945409,4,1032
NC,Raeford,28376,34.986107,-79.206141,4,1033
NC,South Brunswick,28469,33.923901,-78.459091,4,1034
NC,Hope Mills,28348,34.967775,-78.945409,4,1035
NC,Fayetteville,28312,35.066291,-78.866574,4,1036
NC,Lillington,27546,35.397219,-78.813484,4,1037
NC,Fayetteville,28311,35.128576,-78.897217,4,1038
NC,Vass,28394,35.242723,-79.227747,4,1039
SC,N Myrtle Beach,29582,33.82742,-78.682495,4,1040
SC,Pawleys Island,29585,33.453325,-79.135137,4,1041
SC,N Myrtle Beach,29582,33.82742,-78.682495,4,1042
SC,Myrtle Beach,29588,33.676817,-79.014238,4,1043
SC,Myrtle Beach,29579,33.655004,-78.945276,4,1044
SC,Myrtle Beach,29579,33.655004,-78.945276,4,1045
SC,Myrtle Beach,29588,33.676817,-79.014238,4,1046
NC,Jacksonville,28544,34.73262,-77.32764,4,1047
NC,Chapel Hill,27514,35.934949,-79.037474,4,1048
NC,Rocky Mount,27804,35.974314,-77.831514,4,1049
NC,Raleigh,27609,35.84172,-78.63252,4,1050
NC,Raleigh,27612,35.856914,-78.689606,4,1051
NC,Chapel Hill,27517,35.938902,-79.040688,4,1052
NC,Chapel Hill,27514,35.934949,-79.037474,4,1053
NC,Greenville,27834,35.62638,-77.43858,4,1054
NC,Nashville,27856,35.965691,-77.958946,4,1055
VA,Virginia Beach,23454,36.837731,-76.025953,4,1056
VA,Colonial Hghts,23834,37.287361,-77.391074,4,1057
VA,Stafford,22556,38.461964,-77.435878,4,1058
NC,Wake Forest,27587,35.963417,-78.51658,4,1059
NC,Smithfield,27577,35.512172,-78.347308,4,1060
NC,Dunn,28334,35.310491,-78.619199,4,1061
NC,Midway Park,28544,34.73262,-77.32764,4,1062
NC,Clayton,27520,35.636282,-78.444815,4,1063
NC,Warsaw,28398,34.98054,-78.09456,4,1064
SC,Florence,29505,34.128606,-79.747284,4,1065
NC,Spring Lake,28390,35.175116,-78.976743,4,1066
NC,Shallotte,28470,33.959446,-78.395981,4,1067
NC,Fuquay-Varina,27526,35.59854,-78.78432,4,1068
SC,Darlington,29532,34.300363,-79.87017,4,1069
SC,Conway,29526,33.832026,-79.043531,4,1070
NC,Wilmington,28411,34.227651,-77.945987,4,1071
SC,Florence,29506,34.2099,-79.73412,4,1072
NC,Archdale,27263,35.90802,-79.98012,4,1073
NC,Cape Carteret,28584,34.701094,-77.065759,4,1074
NC,Clemmons,27012,36.033742,-80.396011,4,1075
NC,Durham,27705,36.017812,-78.948419,4,1076
NC,Durham,27713,35.916567,-78.917612,4,1077
NC,Havelock,28532,34.893026,-76.90137,4,1078
NC,King,27021,36.28728,-80.356209,4,1079
NC,Kinston,28504,35.275222,-77.589004,4,1080
NC,Kinston,28501,35.273461,-77.597639,4,1081
NC,Rural Hall,27045,36.226761,-80.291133,4,1082
NC,Kernersville,27284,36.11629,-80.092145,4,1083
NC,Siler City,27344,35.72346,-79.42542,4,1084
NC,Wilson,27893,35.73252,-77.920181,4,1085
NC,Winston Salem,27107,36.062543,-80.183453,4,1086
VA,Charlottesville,22901,38.057163,-78.49313,4,1087
SC,Columbia,29223,34.08846,-80.92287,4,1088
SC,Florence,29501,34.182662,-79.782749,4,1089
SC,Mullins,29574,34.203923,-79.25682,4,1090
SC,Latta,29565,34.335502,-79.432246,4,1091
SC,Florence,29505,34.128606,-79.747284,4,1092
SC,Florence,29501,34.182662,-79.782749,4,1093
SC,Aiken,29801,33.564827,-81.709984,4,1094
SC,Belvedere,29841,33.512008,-81.932644,4,1095
SC,North Augusta,29841,33.512008,-81.932644,4,1096
SC,Aiken,29803,33.504406,-81.724533,4,1097
SC,Aiken,29803,33.504406,-81.724533,4,1098
SC,Jackson,29831,33.343729,-81.80796,4,1099
SC,Lexington,29073,33.927355,-81.216327,4,1100
SC,Aiken,29803,33.504406,-81.724533,4,1101
GA,Augusta,30907,33.525,-82.10142,4,1102
GA,Augusta,30909,33.478228,-82.067015,4,1103
GA,Hephzibah,30815,33.344357,-82.069749,4,1104
GA,Augusta,30906,33.400357,-82.031397,4,1105
SC,Lexington,29072,33.97986,-81.26052,4,1106
SC,West Columbia,29172,33.898509,-81.092152,4,1107
SC,Lexington,29073,33.927355,-81.216327,4,1108
SC,Lexington,29072,33.97986,-81.26052,4,1109
SC,Greenville,29615,34.868789,-82.312139,4,1110
SC,Greenville,29601,34.85051,-82.403553,4,1111
SC,Greenville,29615,34.868789,-82.312139,4,1112
SC,Greenville,29615,34.868789,-82.312139,4,1113
SC,Greenville,29607,34.829648,-82.340068,4,1114
SC,Simpsonville,29681,34.777584,-82.128196,4,1115
SC,Spartanburg,29307,34.998752,-81.74645,4,1116
SC,Duncan,29334,34.914282,-82.134672,4,1117
NC,Broadway,27505,35.459283,-79.053129,4,1118
NC,Apex,27539,35.712518,-78.823489,4,1119
NC,Raleigh,27603,35.714307,-78.660593,4,1120
GA,Gainesville,30501,34.286057,-83.820309,4,1121
GA,Alto,30510,34.430265,-83.636673,4,1122
GA,Athens,30605,33.926072,-83.340748,4,1123
GA,Dawsonville,30534,34.388619,-84.096464,4,1124
GA,Athens,30606,33.948996,-83.423229,4,1125
GA,Gainesville,30507,34.254602,-83.775548,4,1126
GA,Gainesville,30501,34.286057,-83.820309,4,1127
GA,Clarkesville,30523,34.613734,-83.520947,4,1128
GA,Bethlehem,30620,33.924569,-83.747066,4,1129
GA,McDonough,30253,33.443757,-84.181882,4,1130
GA,Dawsonville,30534,34.388619,-84.096464,4,1131
GA,Athens,30601,33.974834,-83.363891,4,1132
GA,Comer,30629,34.066604,-83.123296,4,1133
SC,Charleston,29407,32.800052,-80.010928,4,1134
SC,N Charleston,29406,32.92896,-80.02842,4,1135
SC,Charleston,29405,32.85943,-79.988157,4,1136
SC,Charleston,29412,32.71926,-79.95108,4,1137
VA,Galax,24333,36.66059,-80.923683,4,1138
VA,Atkins,24311,36.855788,-81.38813,4,1139
SC,Sumter,29150,33.87708,-80.2575,4,1140
SC,Sumter,29154,33.896794,-80.418858,4,1141
SC,Sumter,29150,33.87708,-80.2575,4,1142
MS,Hattiesburg,39402,31.313286,-89.341967,4,1143
MS,Brooklyn,39425,31.03116,-89.172,4,1144
MS,Meridian,39301,32.372903,-88.696221,4,1145
MS,Gulfport,39503,30.4731,-89.15382,4,1146
MS,Sandersville,39437,31.59786,-89.2086,4,1147
MS,Laurel,39440,31.71048,-89.10234,4,1148
MS,Poplarville,39470,30.87972,-89.58846,4,1149
MS,Hattiesburg,39402,31.313286,-89.341967,4,1150
MS,Collins,39428,31.65228,-89.55732,4,1151
MS,Magee,39111,31.872919,-89.734963,4,1152
MS,Columbia,39429,31.256049,-89.826376,4,1153
MS,Wiggins,39577,30.855908,-89.135956,4,1154
SC,Gaffney,29340,35.062322,-81.645437,4,1155
SC,Spartanburg,29303,35.01804,-81.97614,4,1156
SC,Roebuck,29367,34.87944,-81.96639,4,1157
SC,Sumter,29154,33.896794,-80.418858,4,1158
SC,Surfside Beach,29575,33.626586,-78.983446,4,1159
MS,Brandon,39042,32.289412,-89.967651,4,1160
MS,Ridgeland,39157,32.419743,-90.125726,4,1161
MS,Florence,39073,32.148436,-90.134308,4,1162
SC,Gaffney,29340,35.062322,-81.645437,4,1163
SC,Campobello,29322,35.118004,-82.126556,4,1164
MS,Pearl,39208,32.27172,-90.10494,4,1165
SC,Prosperity,29127,34.182431,-81.52094,4,1166
NC,Durham,27703,35.973771,-78.838515,4,1167
MS,Vicksburg,39180,32.323121,-90.860809,4,1168
MS,Vicksburg,39180,32.323121,-90.860809,4,1169
MS,Vicksburg,39183,32.390993,-90.829096,4,1170
MS,Vicksburg,39180,32.323121,-90.860809,4,1171
MS,Yazoo City,39194,32.857919,-90.405161,4,1172
LA,Tallulah,71282,32.37468,-91.06548,4,1173
LA,West Monroe,71291,32.503812,-92.191028,4,1174
LA,Monroe,71201,32.522484,-92.103332,4,1175
LA,Monroe,71202,32.48196,-92.08002,4,1176
MS,Gulfport,39503,30.4731,-89.15382,4,1177
MS,Diberville,39540,30.459729,-88.948864,4,1178
MS,Ocean Springs,39564,30.62467,-88.84789,4,1179
MS,Gulfport,39507,30.394254,-89.037041,4,1180
MS,Gulfport,39503,30.4731,-89.15382,4,1181
LA,Hammond,70401,30.516364,-90.476064,4,1182
MS,Magee,39111,31.872919,-89.734963,4,1183
NC,Kannapolis,28083,35.483897,-80.599575,4,1184
NC,Wilson,27896,35.75562,-77.944711,4,1185
NC,Kinston,28504,35.275222,-77.589004,4,1186
NC,Morehead City,28557,34.725535,-76.758443,4,1187
NC,Goldsboro,27530,35.37996,-78.09786,4,1188
NC,Raleigh,27604,35.86662,-78.5319,4,1189
NC,Greensboro,27407,36.01266,-79.86996,4,1190
NC,Durham,27704,36.034161,-78.869276,4,1191
VA,Blairs,24527,36.709193,-79.377666,4,1192
NC,Garner,27529,35.684813,-78.60826,4,1193
NC,Southern Pines,28387,35.174091,-79.390844,4,1194
NC,Fayetteville,28314,35.05772,-79.003491,4,1195
SC,N Myrtle Beach,29582,33.82742,-78.682495,4,1196
SC,Columbia,29201,33.998223,-81.032546,4,1197
NC,Supply,28462,33.97272,-78.28986,4,1198
NC,Cary,27513,35.80541,-78.797679,4,1199
NC,Durham,27713,35.916567,-78.917612,4,1200
SC,Myrtle Beach,29577,33.6606,-78.92394,4,1201
GA,Dalton,30721,34.784599,-84.932948,4,1202
GA,Rossville,30741,34.958205,-85.295156,4,1203
GA,Dalton,30721,34.784599,-84.932948,4,1204
GA,Calhoun,30701,34.495946,-84.931056,4,1205
GA,Rome,30161,34.24549,-85.109805,4,1206
GA,Rome,30165,34.282882,-85.237598,4,1207
GA,Ringgold,30736,34.934373,-85.151128,4,1208
GA,Rossville,30741,34.958205,-85.295156,4,1209
GA,Ringgold,30736,34.934373,-85.151128,4,1210
GA,Rome,30161,34.24549,-85.109805,4,1211
GA,Dalton,30721,34.784599,-84.932948,4,1212
GA,Fort Oglethrope,30736,34.934373,-85.151128,4,1213
GA,Dalton,30721,34.784599,-84.932948,4,1214
GA,Dalton,30721,34.784599,-84.932948,4,1215
GA,Dalton,30721,34.784599,-84.932948,4,1216
GA,Ringgold,30736,34.934373,-85.151128,4,1217
GA,Ringgold,30736,34.934373,-85.151128,4,1218
SC,Hardeeville,29927,32.2813,-81.071015,4,1219
NC,Apex,27539,35.712518,-78.823489,4,1220
NC,Apex,27539,35.712518,-78.823489,4,1221
GA,Rome,30165,34.282882,-85.237598,4,1222
GA,Rome,30165,34.282882,-85.237598,4,1223
AL,Troy,36081,31.799767,-85.963152,4,1224
AL,Sheffield,35660,34.754898,-87.681822,4,1225
AL,Dothan,36303,31.25424,-85.3989,4,1226
GA,Acworth,30101,34.035593,-84.708375,4,1227
GA,Rome,30161,34.24549,-85.109805,4,1228
AL,Gadsden,35901,34.00824,-85.94424,4,1229
GA,Carrollton,30117,33.589927,-85.120833,4,1230
GA,Calhoun,30701,34.495946,-84.931056,4,1231
GA,Cartersville,30121,34.228469,-84.789525,4,1232
AL,Boaz,35957,34.1481,-86.14806,4,1233
GA,Rome,30165,34.282882,-85.237598,4,1234
GA,Dalton,30720,34.759673,-84.975973,4,1235
AL,Opelika,36801,32.640621,-85.382583,4,1236
AL,Childersburg,35044,33.276643,-86.352253,4,1237
AL,Anniston,36201,33.65665,-85.827251,4,1238
AL,Oxford,36203,33.602111,-85.835924,4,1239
AL,Fort Payne,35968,34.441634,-85.719381,4,1240
GA,Cartersville,30121,34.228469,-84.789525,4,1241
AL,Decatur,35601,34.59188,-86.984191,4,1242
AL,Birmingham,35234,33.53596,-86.802701,4,1243
AL,Montgomery,36105,32.323522,-86.313946,4,1244
AL,Gadsden,35904,34.023713,-86.054211,4,1245
GA,Cartersville,30121,34.228469,-84.789525,4,1246
AL,Huntsville,35806,34.7573,-86.678606,4,1247
GA,Rome,30161,34.24549,-85.109805,4,1248
AL,Birmingham,35204,33.520297,-86.838364,4,1249
MS,Gulfport,39501,30.385481,-89.086881,4,1250
AL,Pelham,35124,33.30186,-86.7918,4,1251
AL,Huntsville,35805,34.712977,-86.612847,4,1252
AL,Muscle Shoals,35661,34.751695,-87.644366,4,1253
AL,Scottsboro,35768,34.91655,-86.08791,4,1254
GA,Bremen,30110,33.739322,-85.135317,4,1255
AL,Anniston,36201,33.65665,-85.827251,4,1256
AL,Florence,35630,34.819157,-87.658805,4,1257
AL,Montgomery,36117,32.38369,-86.13246,4,1258
SC,North Charleston,29406,32.92896,-80.02842,4,1259
SC,N Charleston,29418,32.89296,-80.0595,4,1260
SC,North Charleston,29406,32.92896,-80.02842,4,1261
SC,Charleston,29407,32.800052,-80.010928,4,1262
MS,Senatobia,38668,34.65318,-89.86986,4,1263
MS,Gulfport,39503,30.4731,-89.15382,4,1264
VA,Chesapeake,23321,36.797907,-76.425462,4,1265
VA,Wytheville,24382,36.94526,-81.089071,4,1266
VA,Wytheville,24382,36.94526,-81.089071,4,1267
VA,Troutville,24175,37.397461,-79.876477,4,1268
VA,Wytheville,24382,36.94526,-81.089071,4,1269
VA,Bastian,24314,37.16178,-81.19848,4,1270
VA,Austinville,24312,36.819859,-80.870189,4,1271
VA,Bland,24315,37.142078,-81.013829,4,1272
VA,Staunton,24401,38.153156,-79.078684,4,1273
VA,Wytheville,24382,36.94526,-81.089071,4,1274
VA,Max Meadows,24360,36.92448,-80.9118,4,1275
AL,Northport,35475,33.24539,-87.594372,4,1276
AL,Knoxville,35469,32.973197,-87.805293,4,1277
AL,Tuscaloosa,35405,33.157819,-87.51716,4,1278
AL,Northport,35476,33.255087,-87.586136,4,1279
AL,Northport,35476,33.255087,-87.586136,4,1280
AL,Tuscaloosa,35406,33.251917,-87.530735,4,1281
AL,Huntsville,35803,34.616542,-86.549318,4,1282
MS,Madison,39110,32.467942,-90.121854,4,1283
GA,Augusta,30909,33.478228,-82.067015,4,1284
MS,Jackson,39202,32.310057,-90.176007,4,1285
MS,Vicksburg,39180,32.323121,-90.860809,4,1286
LA,Slidell,70461,30.268846,-89.678399,4,1287
MS,Jackson,39272,32.216828,-90.269123,4,1288
MS,Madison,39110,32.467942,-90.121854,4,1289
LA,Slidell,70458,30.272675,-89.772151,4,1290
MS,Clinton,39056,32.337754,-90.32538,4,1291
MS,Clinton,39056,32.337754,-90.32538,4,1292
MS,Diamondhead,39525,30.38456,-89.375564,4,1293
MS,Vicksburg,39183,32.390993,-90.829096,4,1294
MS,Vicksburg,39180,32.323121,-90.860809,4,1295
MS,Gulfport,39503,30.4731,-89.15382,4,1296
LA,Covington,70433,30.457687,-90.114529,4,1297
MS,Ocean Springs,39532,30.461218,-88.949246,4,1298
MS,Moss Point,39563,30.407564,-88.530167,4,1299
MS,Gulfport,39503,30.4731,-89.15382,4,1300
MS,Pearl,39208,32.27172,-90.10494,4,1301
LA,Ponchatoula,70454,30.44116,-90.397448,4,1302
LA,Covington,70433,30.457687,-90.114529,4,1303
LA,Mandeville,70471,30.415777,-90.010249,4,1304
MS,Brandon,39042,32.289412,-89.967651,4,1305
LA,Albany,70711,30.51783,-90.59187,4,1306
LA,Bossier City,71112,32.486057,-93.671643,4,1307
LA,Bossier City,71111,32.545307,-93.704765,4,1308
LA,Shreveport,71105,32.454589,-93.712715,4,1309
NC,Sanford,27330,35.459277,-79.168611,4,1310
NC,Sanford,27330,35.459277,-79.168611,4,1311
NC,Durham,27713,35.916567,-78.917612,4,1312
NC,Durham,27713,35.916567,-78.917612,4,1313
NC,Greensboro,27406,36.021374,-79.767916,4,1314
NC,Greensboro,27408,36.106359,-79.817365,4,1315
NC,Greensboro,27408,36.106359,-79.817365,4,1316
NC,Whitsett,27377,36.035608,-79.602646,4,1317
NC,High Point,27262,35.95602,-80.04072,4,1318
NC,Boone,28607,36.21864,-81.6546,4,1319
NC,Graham,27253,36.023611,-79.366835,4,1320
NC,Apex,27523,35.713062,-78.823781,4,1321
SC,Charleston,29492,32.955719,-79.887276,4,1322
NC,Apex,27502,35.711653,-78.81965,4,1323
AL,Bessemer,35020,33.40098,-86.94156,4,1324
AL,Birmingham,35243,33.42942,-86.7252,4,1325
AL,Pinson,35126,33.7263,-86.64396,4,1326
AL,Irondale,35210,33.54072,-86.68518,4,1327
AL,Chelsea,35043,33.319654,-86.646309,4,1328
AL,Alabaster,35007,33.241465,-86.821286,4,1329
AL,Birmingham,35244,33.36171,-86.788783,4,1330
AL,Birmingham,35244,33.36171,-86.788783,4,1331
AL,Birmingham,35205,33.496708,-86.804796,4,1332
AL,Hoover,35216,33.421551,-86.794582,4,1333
AL,Birmingham,35242,33.403565,-86.711683,4,1334
AL,Homewood,35209,33.4602,-86.8092,4,1335
AL,Birmingham,35206,33.567997,-86.720742,4,1336
AL,Hoover,35244,33.36171,-86.788783,4,1337
AL,Bessemer,35020,33.40098,-86.94156,4,1338
AL,Tuscaloosa,35405,33.157819,-87.51716,4,1339
AL,Tuscaloosa,35405,33.157819,-87.51716,4,1340
AL,Tuscaloosa,35401,33.191809,-87.564581,4,1341
AL,Andalusia,36420,31.23708,-86.5758,4,1342
AL,Trussville,35173,33.64248,-86.58402,4,1343
AL,Birmingham,35215,33.639053,-86.691875,4,1344
AL,Dothan,36303,31.25424,-85.3989,4,1345
AL,Prattville,36067,32.487639,-86.508013,4,1346
AL,Prattville,36066,32.469884,-86.436853,4,1347
AL,Jasper,35501,33.842149,-87.274833,4,1348
AL,Bessemer,35022,33.342582,-86.962361,4,1349
AL,Midfield,35228,33.50028,-86.91762,4,1350
AL,Hoover,35244,33.36171,-86.788783,4,1351
AL,Graysville,35073,33.621087,-86.958247,4,1352
SC,Columbia,29229,34.127676,-80.896127,4,1353
AL,Gadsden,35901,34.00824,-85.94424,4,1354
NC,Southern Pines,28387,35.174091,-79.390844,4,1355
NC,Sanford,27332,35.462395,-79.172874,4,1356
NC,Sanford,27330,35.459277,-79.168611,4,1357
MS,Long Beach,39560,30.362985,-89.166163,4,1358
MS,Biloxi,39531,30.400773,-88.962563,4,1359
FL,Jacksonville Beach,32250,30.28122,-81.41682,4,1360
FL,Jacksonville,32257,30.193293,-81.601505,4,1361
SC,Mt. Pleasant,29466,32.792155,-79.863357,4,1362
FL,Destin,32541,30.397703,-86.479754,4,1363
FL,Niceville,32578,30.505216,-86.454252,4,1364
NC,Kill Devil Hills,27948,36.022095,-75.680394,4,1365
NC,Kill Devil Hills,27948,36.022095,-75.680394,4,1366
SC,Hardeeville,29927,32.2813,-81.071015,4,1367
MS,Brandon,39042,32.289412,-89.967651,4,1368
FL,Naples,34119,26.256936,-81.713878,4,1369
MS,Senatobia,38668,34.65318,-89.86986,4,1370
MS,Eupora,39744,33.55584,-89.29434,4,1371
NC,Sanford,27332,35.462395,-79.172874,4,1372
AL,Columbiana,35051,33.182346,-86.604992,4,1373
SC,Summerville,29483,33.017824,-80.21135,4,1374
SC,Georgetown,29440,33.52698,-79.29846,4,1375
SC,Jamestown,29453,33.197783,-79.691205,4,1376
SC,Round O,29474,32.942016,-80.577727,4,1377
SC,N Charleston,29418,32.89296,-80.0595,4,1378
SC,Moncks Corner,29461,33.149449,-80.028022,4,1379
SC,Conway,29527,33.74562,-79.0749,4,1380
SC,Daniel Island,29492,32.955719,-79.887276,4,1381
SC,North Charleston,29406,32.92896,-80.02842,4,1382
NC,Morrisville,27560,35.825795,-78.836037,4,1383
GA,Bainbridge,39819,30.901653,-84.567519,4,1384
GA,Bainbridge,39819,30.901653,-84.567519,4,1385
GA,Colquitt,39837,31.174262,-84.730167,4,1386
GA,Thomasville,31757,30.865689,-83.906478,4,1387
GA,Dawson,39842,31.768132,-84.431214,4,1388
AL,Enterprise,36330,31.32558,-85.844682,4,1389
FL,Crawfordville,32327,30.194005,-84.263529,4,1390
GA,Bainbridge,39817,30.905055,-84.568611,4,1391
FL,Alachua,32615,29.784372,-82.477314,4,1392
FL,Gainesville,32606,29.696881,-82.411723,4,1393
FL,Gainesville,32608,29.602269,-82.399138,4,1394
FL,Ocala,34482,29.229052,-82.306676,4,1395
FL,Ocala,34480,29.105081,-82.098267,4,1396
FL,Naples,34105,26.185362,-81.764078,4,1397
NC,Charlotte,28227,35.18496,-80.65482,4,1398
NC,Charlotte,28211,35.165273,-80.788876,4,1399
NC,Charlotte,28210,35.133058,-80.859674,4,1400
NC,Matthews,28105,35.11434,-80.69394,4,1401
NC,Charlotte,28209,35.174505,-80.853465,4,1402
NC,Charlotte,28215,35.239821,-80.725177,4,1403
NC,Charlotte,28217,35.154268,-80.928633,4,1404
NC,Charlotte,28217,35.154268,-80.928633,4,1405
NC,Charlotte,28213,35.28978,-80.780774,4,1406
SC,Rock Hill,29732,34.970453,-81.060985,4,1407
NC,Gastonia,28054,35.22972,-81.14244,4,1408
NC,Charlotte,28269,35.314436,-80.805053,4,1409
NC,Charlotte,28273,35.137982,-80.938181,4,1410
NC,Charlotte,28262,35.320146,-80.741193,4,1411
NC,Charlotte,28273,35.137982,-80.938181,4,1412
SC,Fort Mill,29708,35.006322,-80.942526,4,1413
NC,Charlotte,28277,35.064565,-80.806138,4,1414
NC,Charlotte,28269,35.314436,-80.805053,4,1415
NC,Denver,28037,35.510143,-81.016888,4,1416
NC,Cornelius,28031,35.478218,-80.864412,4,1417
NC,Statesville,28625,35.780234,-80.886089,4,1418
SC,York,29745,35.004572,-81.209303,4,1419
NC,Charlotte,28277,35.064565,-80.806138,4,1420
NC,Concord,28027,35.411756,-80.646757,4,1421
SC,Rock Hill,29732,34.970453,-81.060985,4,1422
SC,Rock Hill,29730,34.929113,-81.022958,4,1423
NC,Hickory,28602,35.6616,-81.37032,4,1424
NC,Thomasville,27360,35.880803,-80.083016,4,1425
NC,Lincolnton,28092,35.48514,-81.22386,4,1426
NC,Belmont,28012,35.243718,-81.03641,4,1427
NC,Hickory,28601,35.75358,-81.3249,4,1428
SC,Gaffney,29341,35.09456,-81.677416,4,1429
NC,Concord,28025,35.400953,-80.583807,4,1430
SC,Gaffney,29341,35.09456,-81.677416,4,1431
SC,Lake Wylie,29710,35.105301,-81.184746,4,1432
NC,Conover,28613,35.71182,-81.209282,4,1433
NC,Charlotte,28204,35.214583,-80.828507,4,1434
NC,Charlotte,28217,35.154268,-80.928633,4,1435
NC,Gastonia,28054,35.22972,-81.14244,4,1436
NC,Gastonia,28052,35.2275,-81.24204,4,1437
SC,Lake Wylie,29710,35.105301,-81.184746,4,1438
SC,Fort Mill,29715,35.02632,-80.9472,4,1439
NC,Kings Mountain,28086,35.246918,-81.361082,4,1440
NC,Charlotte,28262,35.320146,-80.741193,4,1441
NC,Gastonia,28054,35.22972,-81.14244,4,1442
NC,Gastonia,28056,35.209997,-81.146871,4,1443
NC,Gastonia,28052,35.2275,-81.24204,4,1444
NC,Charlotte,28273,35.137982,-80.938181,4,1445
NC,Charlotte,28227,35.18496,-80.65482,4,1446
SC,Rock Hill,29732,34.970453,-81.060985,4,1447
NC,Charlotte,28213,35.28978,-80.780774,4,1448
NC,Charlotte,28277,35.064565,-80.806138,4,1449
NC,Monroe,28110,35.010982,-80.551224,4,1450
NC,Monroe,28112,34.940983,-80.540648,4,1451
NC,Monroe,28110,35.010982,-80.551224,4,1452
SC,Tega Cay,29708,35.006322,-80.942526,4,1453
LA,Kentwood,70444,30.936684,-90.517939,4,1454
FL,Naples,34119,26.256936,-81.713878,4,1455
FL,Bonita Springs,34135,26.387185,-81.735987,4,1456
LA,Slidell,70460,30.293114,-89.820906,4,1457
SC,North Charleston,29420,32.923689,-80.099458,4,1458
MS,Gautier,39553,30.400064,-88.643006,4,1459
FL,Naples,34112,26.118299,-81.734198,4,1460
NC,Stedman,28391,35.021874,-78.704641,4,1461
NC,Cameron,28326,35.340855,-79.223822,4,1462
FL,Palatka,32666,29.746789,-82.010428,4,1463
FL,Jacksonville,32220,30.328507,-81.815147,4,1464
FL,Orange Park,32226,30.466832,-81.547848,4,1465
FL,Daytona Beach,32119,29.139694,-81.012938,4,1466
FL,Merritt Island,32935,28.138545,-80.657969,4,1467
FL,Orange Park,32073,30.174663,-81.758375,4,1468
FL,Gainesville,32608,29.602269,-82.399138,4,1469
FL,Jacksonville,32205,30.30316,-81.726849,4,1470
FL,Fernandina Beach,32034,30.636954,-81.46134,4,1471
FL,Newberry,32669,29.647073,-82.599723,4,1472
FL,Gainesville,32608,29.602269,-82.399138,4,1473
FL,Jacksonville,32254,30.338709,-81.727618,4,1474
FL,Daytona Beach,32119,29.139694,-81.012938,4,1475
FL,St Augustine,32086,29.759403,-81.30397,4,1476
FL,Inverness,34450,28.824261,-82.257899,4,1477
FL,Jacksonville,32210,30.260733,-81.746664,4,1478
FL,Jacksonville,32244,30.223538,-81.757243,4,1479
FL,Cocoa,32927,28.470183,-80.797492,4,1480
FL,Jacksonville,32210,30.260733,-81.746664,4,1481
FL,Gainesville,32608,29.602269,-82.399138,4,1482
FL,Jacksonville,32224,30.275858,-81.461221,4,1483
FL,Hastings,32145,29.677524,-81.418611,4,1484
FL,Jacksonville,32246,30.305263,-81.511694,4,1485
FL,Middleburg,32068,30.092929,-81.867697,4,1486
FL,Jacksonville,32219,30.410491,-81.807977,4,1487
FL,Mascotte,34753,28.579955,-81.892469,4,1488
FL,Jacksonville,32244,30.223538,-81.757243,4,1489
FL,Edgewater,32132,28.975063,-80.912136,4,1490
FL,Daytona Beach,32114,29.198356,-81.042354,4,1491
FL,Palm Bay,32907,28.015502,-80.669053,4,1492
FL,Gainesville,32606,29.696881,-82.411723,4,1493
FL,Palm Bay,32905,28.028121,-80.601039,4,1494
FL,Orlando,32824,28.403466,-81.360078,4,1495
FL,Jacksonville,32218,30.461492,-81.625786,4,1496
FL,Palatka,32177,29.644139,-81.659574,4,1497
FL,Tampa,33613,28.075939,-82.45056,4,1498
FL,Haines City,33844,28.099287,-81.615558,4,1499
FL,Rockledge,32955,28.313343,-80.723283,4,1500
VA,Ashland,23005,37.747553,-77.471865,3,1501
NC,Whitsett,27377,36.035608,-79.602646,3,1502
PA,Brookville,15825,41.1741,-79.0674,3,1503
NJ,Columbia,7832,40.986264,-75.068098,3,1504
AZ,Eloy,85231,32.75583,-111.55417,3,1505
NM,Gallup,87301,35.522559,-108.7258,3,1506
IN,Gary,46406,41.587301,-87.411577,3,1507
OH,Eaton,45320,39.733814,-84.671102,3,1508
PA,Harrisburg,17112,40.33806,-76.80378,3,1509
TN,Knoxville,37932,35.920159,-84.174433,3,1510
NM,Las Cruces,88005,32.323217,-106.805117,3,1511
OH,Seville,44273,41.027572,-81.883128,3,1512
AL,Tuscaloosa,35453,33.200553,-87.401063,3,1513
TX,Baytown,77521,29.795863,-94.973054,3,1514
MO,Concordia,64020,38.95523,-93.584522,3,1515
MD,Elkton,21921,39.626375,-75.849604,3,1516
CT,Willington,6279,41.89578,-72.2643,3,1517
NM,Santa Rosa,88435,34.936606,-104.684358,3,1518
OH,London,43140,39.89106,-83.40534,3,1519
SC,Duncan,29334,34.914282,-82.134672,3,1520
CA,Ontario,91761,34.036901,-117.606236,3,1521
KY,Walton,41094,38.884714,-84.634472,3,1522
OH,Kingsville,44048,41.86129,-80.65469,3,1523
IL,Russell,60099,42.450382,-87.859034,3,1524
WV,Valley Grove,26060,40.092999,-80.573503,3,1525
AR,Earle,72331,35.269497,-90.46142,3,1526
TN,Nashville,37213,36.165353,-86.765654,3,1527
IL,Effingham,62401,39.12264,-88.58796,3,1528
OK,Oklahoma City,73128,35.451515,-97.620639,3,1529
OH,Hebron,43025,39.97458,-82.50594,3,1530
CA,Corning,96021,39.926419,-122.190031,3,1531
CA,Coachella,92236,33.68036,-116.178246,3,1532
IL,Mount Vernon,62864,38.31764,-88.909298,3,1533
IL,Hampshire,60140,42.11652,-88.50222,3,1534
GA,Madison,30650,33.590212,-83.477409,3,1535
LA,Tallulah,71282,32.37468,-91.06548,3,1536
MS,Meridian,39301,32.372903,-88.696221,3,1537
NJ,Bloomsbury,8804,40.645635,-75.076618,3,1538
TX,Rockwall,75032,32.86941,-96.40895,3,1539
WI,De Forest,53532,43.236225,-89.333063,3,1540
MO,Matthews,63867,36.757869,-89.587967,3,1541
MO,Oak Grove,64075,38.998544,-94.144642,3,1542
FL,Wildwood,34785,28.860356,-82.040896,3,1543
AL,Grand Bay,36541,30.490561,-88.330633,3,1544
TX,Amarillo,79118,35.06543,-101.852052,3,1545
OR,Portland,97002,45.232302,-122.807794,3,1546
CA,Redding,96002,40.540695,-122.32451,3,1547
OH,Youngstown,44515,41.099874,-80.751233,3,1548
OK,Oklahoma City,73128,35.451515,-97.620639,3,1549
UT,Tooele,84074,40.57128,-112.31862,3,1550
IN,Seymour,47274,38.959237,-85.892632,3,1551
IA,Council Bluffs,51501,41.254887,-95.852753,3,1552
PA,Barkeyville,16038,41.136102,-80.004545,3,1553
PA,Lamar,16848,41.016265,-77.531108,3,1554
MI,Monroe,48162,41.94,-83.313333,3,1555
NM,Albuquerque,87107,35.135912,-106.643641,3,1556
OH,Perrysburg,43551,41.542639,-83.597702,3,1557
MI,Dexter,48130,42.353665,-83.897388,3,1558
NE,Ogallala,69153,41.15496,-101.67744,3,1559
IL,Bloomington,61701,40.47558,-89.00472,3,1560
KY,Florence,41042,38.986125,-84.648281,3,1561
AZ,Kingman,86401,35.52402,-113.99268,3,1562
OH,North Canton,44720,40.89732,-81.43344,3,1563
GA,Jackson,30233,33.294108,-83.965048,3,1564
TN,Knoxville,37922,35.85642,-84.12834,3,1565
NV,Las Vegas,89139,36.040915,-115.194368,3,1566
AL,Montgomery,36105,32.323522,-86.313946,3,1567
MI,Sawyer,49125,41.88865,-86.594119,3,1568
TN,Antioch,37013,36.037491,-86.638596,3,1569
OH,Jeffersonville,43128,39.65666,-83.573926,3,1570
VA,Ashland,23005,37.747553,-77.471865,3,1571
VA,Wytheville,24382,36.94526,-81.089071,3,1572
GA,Cartersville,30121,34.228469,-84.789525,3,1573
TX,San Antonio,78219,29.44692,-98.38098,3,1574
CO,Commerce City,80022,39.831897,-104.894182,3,1575
WV,Hurricane,25526,38.435356,-82.002155,3,1576
TX,Dallas,75241,32.656089,-96.746634,3,1577
MD,Jessup,20794,39.154739,-76.811082,3,1578
OK,Sayre,73662,35.299435,-99.638752,3,1579
TX,Laredo,78045,27.594073,-99.51285,3,1580
CT,Milldale,6467,41.566761,-72.903921,3,1581
GA,Commerce,30259,33.275376,-84.749624,3,1582
TN,Franklin,37064,35.923225,-86.887821,3,1583
FL,Seffner,33584,27.990282,-82.285514,3,1584
CA,Buttonwillow,93206,35.399946,-119.443058,3,1585
LA,Lafayette,70507,30.281565,-92.021505,3,1586
CA,Ontario,91761,34.036901,-117.606236,3,1587
CA,Santa Nella,95322,37.1889,-120.9861,3,1588
ID,Bosie,83705,43.580123,-116.219041,3,1589
CA,Livingston,95334,37.376697,-120.726729,3,1590
CT,Branford,6405,41.278295,-72.796351,3,1591
NV,Sparks,89431,39.548066,-119.734394,3,1592
IN,Whitestown,46075,39.982382,-86.35094,3,1593
CO,Wheat Ridge,80033,39.772041,-105.101411,3,1594
MO,Foristell,63348,38.790081,-90.936659,3,1595
WA,NORTH BEND,98045,47.475162,-121.756532,3,1596
GA,Richmond Hill,31324,31.875724,-81.284127,3,1597
FL,Marianna,32448,30.661698,-85.18484,3,1598
SC,Manning,29102,33.63792,-80.25738,3,1599
LA,Slidell,70458,30.272675,-89.772151,3,1600
NV,Mill City,89418,40.66,-118.14,3,1601
OR,Troutdale,97060,45.527631,-122.397778,3,1602
UT,Parowan,84761,37.844667,-112.82774,3,1603
WY,Burns,82053,41.218272,-104.362776,3,1604
WY,Fort Bridger,82933,41.299522,-110.39008,3,1605
MN,Rogers,55374,45.173877,-93.567994,3,1606
WI,Hudson,54016,44.98188,-92.69082,3,1607
NE,Alda,68810,40.87318,-98.456185,3,1608
NY,Pembroke,14036,42.972006,-78.383842,3,1609
SC,Florence,29501,34.182662,-79.782749,3,1610
FL,Vero Beach,32969,27.638947,-80.397672,3,1611
MI,Saginaw,48722,43.350825,-83.851455,3,1612
IL,Troy,62294,38.7068,-89.873032,3,1613
NY,Binghamton,13904,42.12906,-75.82182,3,1614
NY,Dansville,14437,42.572707,-77.731377,3,1615
NY,Fultonville,12072,42.944695,-74.376969,3,1616
NY,Maybrook,17549,40.151513,-76.090144,3,1617
NH,Greenland,3840,43.037821,-70.846351,3,1618
PA,Bloomsburg,17815,41.007884,-76.445829,3,1619
PA,Greencastle,17225,39.789267,-77.752975,3,1620
PA,Milesburg,16853,40.941151,-77.791263,3,1621
PA,Erie,16510,42.140278,-80.015278,3,1622
MD,Baltimore,21224,39.28068,-76.53798,3,1623
NJ,Paulsboro,8066,39.82592,-75.212157,3,1624
IN,Lake Station,46405,41.56853,-87.270213,3,1625
IN,Porter,46304,41.617037,-87.028793,3,1626
NC,Candler,28715,35.536698,-82.680987,3,1627
AR,Prescott,71857,33.802675,-93.377033,3,1628
AZ,Tonopah,85354,33.475267,-112.879075,3,1629
AZ,Willcox,85643,32.36172,-109.88676,3,1630
CA,Barstow,92311,34.887322,-117.037597,3,1631
CO,Limon,80828,39.261367,-103.688061,3,1632
NM,Moriarty,87035,34.959132,-106.054681,3,1633
TX,Big Spring,79720,32.51461,-101.57574,3,1634
TX,Ganado,77962,29.038785,-96.513009,3,1635
TX,New Branufels,78130,29.71962,-98.0808,3,1636
TX,Terrell,75161,32.721077,-96.165376,3,1637
WY,Rawlins,82301,41.78887,-107.199009,3,1638
TX,Edinburg,78541,26.295361,-98.16343,3,1639
IL,Morris,60450,41.364155,-88.421363,3,1640
LA,Greenwood,71033,32.437841,-93.988179,3,1641
SC,Columbia,29201,33.998223,-81.032546,3,1642
CA,Arvin,93203,35.213446,-118.854447,3,1643
IN,Demotte,46310,41.184919,-87.209975,3,1644
MI,Battle Creek,49014,42.312625,-85.106599,3,1645
MI,Tekonsha,49092,42.102483,-84.980824,3,1646
IN,New Libson,47366,39.861283,-85.263377,3,1647
TN,Denmark,38391,35.542234,-88.992348,3,1648
AZ,Holbrook,86025,34.906715,-110.159202,3,1649
FL,Baldwin,32234,30.219367,-81.997401,3,1650
FL,Jacksonville,32259,30.091233,-81.625682,3,1651
GA,Lake Park,31636,30.6871,-83.20203,3,1652
IN,Porter,46304,41.617037,-87.028793,3,1653
NC,Mocksville,27028,35.90826,-80.5563,3,1654
KS,Beto Junction,66856,38.389155,-95.844704,3,1655
RI,West Greenwich,2817,41.624715,-71.626315,3,1656
IA,Brooklyn,52211,41.729084,-92.44554,3,1657
TN,Pioneer,37847,36.459083,-84.30266,3,1658
MT,Missoula,59808,46.849245,-114.014432,3,1659
IN,Clayton,46118,39.655558,-86.521037,3,1660
GA,Brunswick,31523,31.174003,-81.501377,3,1661
ND,Alexander,58831,47.855481,-103.642519,3,1662
AL,Lincoln,35096,33.593989,-86.132344,3,1663
MT,Laurel,59044,45.672778,-108.760361,3,1664
SC,Columbia,29203,34.09818,-81.03618,3,1665
CA,Arvin,93203,35.213446,-118.854447,3,1666
TX,Denton,76207,33.237391,-97.180102,3,1667
TX,El Paso,79927,31.65522,-106.22826,3,1668
TX,Weatherford,76076,32.75917,-97.79694,3,1669
WY,Laramie,82070,41.297825,-105.635487,3,1670
TX,Beaumont,77705,29.9694,-94.1553,3,1671
TX,San Antonio,78219,29.44692,-98.38098,3,1672
AZ,Eloy,85131,32.74132,-111.58537,3,1673
TX,Amarillo,79118,35.06543,-101.852052,3,1674
LA,Shreveport,71129,32.424689,-93.897547,3,1675
CA,Corning,96021,39.926419,-122.190031,3,1676
LA,Hammond,70401,30.516364,-90.476064,3,1677
AR,W. Memphis,72301,35.146563,-90.177352,3,1678
TN,Knoxville,37922,35.85642,-84.12834,3,1679
NM,Milan,87021,35.170117,-107.888998,3,1680
NJ,Bordentown,8505,40.12842,-74.71686,3,1681
AZ,Kingman,86401,35.52402,-113.99268,3,1682
OK,Oklahoma City,73117,35.48006,-97.473067,3,1683
OH,Stony Ridge,43551,41.542639,-83.597702,3,1684
MO,Kingdom City,65262,38.957522,-91.962837,3,1685
AL,Mc Calla,35111,33.268815,-87.144228,3,1686
OH,Girard,44420,41.157789,-80.68793,3,1687
IL,Effingham,62401,39.12264,-88.58796,3,1688
GA,Atlanta,30318,33.78768,-84.443612,3,1689
FL,Reddick,32686,29.35878,-82.25285,3,1690
OR,Phoenix,97535,42.274463,-122.818314,3,1691
OH,N. Baltimore,45872,41.189235,-83.669819,3,1692
AR,N. Little Rock,72117,34.78092,-92.15208,3,1693
CA,Lebec,93243,34.82988,-118.86348,3,1694
MS,Jackson,39201,32.292867,-90.184187,3,1695
NC,Mebane,27302,36.089915,-79.285944,3,1696
KY,Glendale,42740,37.591766,-85.93973,3,1697
NV,Las Vegas,89115,36.229916,-115.07549,3,1698
TX,Hillsboro,76645,32.01474,-97.10886,3,1699
PA,Carlisle,17013,40.203056,-77.313611,3,1700
NV,Sparks,89431,39.548066,-119.734394,3,1701
WA,Spokane,99224,47.692675,-117.62609,3,1702
TX,Carl's Corner,76645,32.01474,-97.10886,3,1703
LA,Egan,70531,30.257687,-92.492462,3,1704
GA,Kingsland,31548,30.790654,-81.711294,3,1705
IN,Fremont,46737,41.7219,-84.92022,3,1706
CA,Santa Nella,95322,37.1889,-120.9861,3,1707
AL,Shorter,36075,32.406725,-85.954678,3,1708
TN,Kingston Springs,37082,36.085361,-87.121788,3,1709
TX,Canutillo,79835,31.929899,-106.59169,3,1710
AL,Gadsden,35904,34.023713,-86.054211,3,1711
OH,New Paris,45347,39.870254,-84.772952,3,1712
NE,York,68467,40.871762,-97.587892,3,1713
KS,Salina,67401,38.829855,-97.616195,3,1714
IL,Monee,60449,41.419345,-87.774708,3,1715
IN,Gary,46408,41.539202,-87.365937,3,1716
NY,Waterloo,13165,42.907458,-76.877046,3,1717
IN,Brazil,47834,39.52512,-87.1692,3,1718
GA,Carnesville,30521,34.383201,-83.286493,3,1719
PA,DuPont,18641,41.329128,-75.746729,3,1720
IN,Greensburg,47240,39.33696,-85.45392,3,1721
IN,Gaston,47342,40.310795,-85.502413,3,1722
IN,Remington,47342,40.310795,-85.502413,3,1723
NM,Deming,88030,32.263005,-107.754054,3,1724
CA,Lebec,93243,34.82988,-118.86348,3,1725
CA,Lebec,93243,34.82988,-118.86348,3,1726
NV,Wells,89835,41.108927,-114.965942,3,1727
SC,Florence,29402,32.774463,-79.930662,3,1728
TX,Pearsall,78061,28.891692,-99.095347,3,1729
CO,Johnstown,80534,40.30575,-105.07455,3,1730
IL,Wilmington,60481,41.294293,-88.124154,3,1731
WI,Portage,53901,43.544357,-89.473269,3,1732
WI,Luck,54853,45.569924,-92.473493,3,1733
WI,Balsam Lake,54810,45.470233,-92.457874,3,1734
WI,Webster,54893,45.87883,-92.299184,3,1735
WI,Cushing,54006,45.57312,-92.64888,3,1736
WI,Woodville,54028,44.955122,-92.285779,3,1737
WI,Grantsburg,54840,45.751715,-92.652724,3,1738
WI,Osceola,54020,45.320122,-92.699523,3,1739
WI,Minog,54859,46.102673,-91.850913,3,1740
KY,Nicholasville,40356,37.883596,-84.566606,3,1741
KY,Bowling Green,42101,37.018172,-86.458733,3,1742
KY,Cadiz,42211,36.79806,-87.83484,3,1743
KY,Dawson Springs,42408,37.18986,-87.68724,3,1744
KY,Calvert City,42029,37.019627,-88.347552,3,1745
KY,Bowling Green,42101,37.018172,-86.458733,3,1746
KY,Harrodsburg,40330,37.7892,-84.86178,3,1747
KY,Cave City,42127,37.121088,-85.916475,3,1748
KY,Scottsville,42164,36.78216,-86.19012,3,1749
KY,Greenville,42345,37.20701,-87.181121,3,1750
KY,Bowling Green,42101,37.018172,-86.458733,3,1751
KY,Bowling Green,42101,37.018172,-86.458733,3,1752
KY,Jamestown,42629,36.976422,-85.093378,3,1753
KY,Beaver Dam,42320,37.33206,-86.87814,3,1754
KY,Bowling Green,42101,37.018172,-86.458733,3,1755
KY,Auburn,42206,36.885141,-86.72318,3,1756
KY,Bowling Green,42104,36.932012,-86.45006,3,1757
KY,Bowling Green,42101,37.018172,-86.458733,3,1758
KY,Brownsville,42210,37.198402,-86.277888,3,1759
KY,Pembroke,42266,36.779266,-87.364735,3,1760
KY,Bowling Green,42104,36.932012,-86.45006,3,1761
KY,Burkesville,42717,36.80586,-85.40934,3,1762
KY,Ledbetter,42058,37.047851,-88.492729,3,1763
TN,Cookeville,38501,36.19962,-85.52274,3,1764
TN,Clarksville,37042,36.56214,-87.40572,3,1765
KY,Bowling Green,42014,36.99028,-86.44361,3,1766
KY,Glasgow,42141,36.974371,-85.907023,3,1767
TN,Clarksville,37040,36.532026,-87.350258,3,1768
KY,Radcliff,40160,37.826645,-85.94293,3,1769
KY,Scottsville,42164,36.78216,-86.19012,3,1770
KY,Franklin,42134,36.728547,-86.572927,3,1771
KY,Grand Rivers,42045,37.07598,-88.25994,3,1772
KY,Mayfield,42066,36.736513,-88.638158,3,1773
KY,Mayfield,42066,36.736513,-88.638158,3,1774
KY,Draffenville,42025,36.87798,-88.3332,3,1775
KY,Paducah,42001,37.03758,-88.71018,3,1776
KY,Benton,42025,36.87798,-88.3332,3,1777
IN,Centerville,47330,39.797725,-85.011958,3,1778
MN,Floodwood,55736,46.89102,-92.91852,3,1779
MN,Carlton,55718,46.63404,-92.5533,3,1780
MN,Esko,55733,46.710215,-92.360371,3,1781
MN,Cloquet,55720,46.72938,-92.45922,3,1782
MN,Barnum,55707,46.576488,-92.717904,3,1783
MN,Duluth,55808,46.676959,-92.231918,3,1784
MN,Duluth,55807,46.739838,-92.167853,3,1785
MN,Duluth,55806,46.774041,-92.124646,3,1786
MN,Proctor,55810,46.76412,-92.2542,3,1787
MN,Cloquet,55720,46.72938,-92.45922,3,1788
WI,Superior,54880,46.705941,-92.074691,3,1789
MN,Hinckley,55037,46.012922,-92.942087,3,1790
MN,Cloquet,55720,46.72938,-92.45922,3,1791
MN,Duluth,55807,46.739838,-92.167853,3,1792
MN,Moose Lake,55767,46.452701,-92.769759,3,1793
MN,Two Harbors,55616,47.029764,-91.6712,3,1794
MN,Sturgeon Lake,55783,46.360574,-92.778625,3,1795
MN,Grand Rapids,55744,47.233828,-93.522105,3,1796
MO,St Joseph,64506,39.788843,-94.802142,3,1797
MO,Blue Springs,64015,39.0177,-94.31064,3,1798
MO,Platte City,64079,39.35484,-94.7961,3,1799
MO,Warrensburg,64093,38.758746,-93.732134,3,1800
KS,Leavenworth,66048,39.306584,-94.928404,3,1801
MO,Lee'S Summit,64064,38.982769,-94.365575,3,1802
MO,Kansas City,64133,39.02202,-94.46454,3,1803
KS,Ottawa,66067,38.607557,-95.267627,3,1804
MO,Belton,64012,38.806411,-94.535486,3,1805
MO,Gladstone,64118,39.215793,-94.572799,3,1806
MO,North Kansas City,64116,39.14784,-94.56888,3,1807
MO,Blue Springs,64015,39.0177,-94.31064,3,1808
MO,Blue Springs,64015,39.0177,-94.31064,3,1809
MO,Grandview,64030,38.884351,-94.519596,3,1810
MO,Independence,64057,39.072219,-94.346464,3,1811
MO,Independence,64055,39.049222,-94.401477,3,1812
MO,Independence,64054,39.111863,-94.441141,3,1813
MO,Independence,64055,39.049222,-94.401477,3,1814
KS,Kansas City,66109,39.143284,-94.799949,3,1815
KS,Overland Park,66213,38.902439,-94.703976,3,1816
KS,DeSoto,66018,38.970431,-94.967565,3,1817
MO,Independence,64052,39.072429,-94.446384,3,1818
MO,Harrisonville,64701,38.629786,-94.326071,3,1819
IL,Coal City,60416,41.291648,-88.285221,3,1820
IL,Kankakee,60915,41.146337,-87.86369,3,1821
IL,Manteno,60950,41.224823,-87.837831,3,1822
IL,Wilmington,60481,41.294293,-88.124154,3,1823
IL,Diamon,60416,41.291648,-88.285221,3,1824
IL,Bartonville,61607,40.652745,-89.668522,3,1825
IL,Bartonville,61607,40.652745,-89.668522,3,1826
IL,Coal City,60416,41.291648,-88.285221,3,1827
IL,Morris,60450,41.364155,-88.421363,3,1828
CO,Brush,80723,40.250157,-103.619204,3,1829
CO,Walsenburg,81089,37.61716,-104.817267,3,1830
KY,Barbourville,40906,36.86578,-83.892076,3,1831
KY,Georgetown,40324,38.220225,-84.565091,3,1832
KY,Georgetown,40324,38.220225,-84.565091,3,1833
KY,Lexington,40509,38.003602,-84.419005,3,1834
KY,Corbin,40701,36.937489,-84.114901,3,1835
KY,Corbin,40701,36.937489,-84.114901,3,1836
KY,London,40741,37.11022,-84.078189,3,1837
KY,London,40741,37.11022,-84.078189,3,1838
KY,Mt. Vernon,40456,37.358415,-84.346235,3,1839
KY,Mt. Vernon,40456,37.358415,-84.346235,3,1840
KY,Mt. Vernon,40456,37.358415,-84.346235,3,1841
KY,Berea,40403,37.58292,-84.274023,3,1842
KY,Lexington,40504,38.039789,-84.537499,3,1843
KY,Lexington,40511,38.09751,-84.497054,3,1844
KY,Lexington,40511,38.09751,-84.497054,3,1845
KY,Lexington,40503,38.000395,-84.530955,3,1846
KY,Georgetown,40324,38.220225,-84.565091,3,1847
KY,Lexington,40503,38.000395,-84.530955,3,1848
KY,Lexington,40502,38.002247,-84.480071,3,1849
KY,Lexington,40505,38.063208,-84.449524,3,1850
KY,Lexington,40511,38.09751,-84.497054,3,1851
KY,Lexington,40504,38.039789,-84.537499,3,1852
KY,Lexington,40505,38.063208,-84.449524,3,1853
KY,Lexington,40502,38.002247,-84.480071,3,1854
KY,Lexington,40511,38.09751,-84.497054,3,1855
KY,Georgetown,40324,38.220225,-84.565091,3,1856
KY,Lexington,40503,38.000395,-84.530955,3,1857
KY,Lexington,40503,38.000395,-84.530955,3,1858
KY,Lexington,40515,37.963113,-84.467883,3,1859
KY,Lexington,40504,38.039789,-84.537499,3,1860
KY,Lexington,40504,38.039789,-84.537499,3,1861
KY,Lexington,40505,38.063208,-84.449524,3,1862
KY,Louisville,40203,38.247961,-85.764632,3,1863
WI,Sheboygan,53083,43.80234,-87.7698,3,1864
WI,Sheboygan,53081,43.741822,-87.728355,3,1865
WI,Sturgeon Bay,54235,44.84316,-87.39726,3,1866
WI,Plymouth,53073,43.750559,-87.979314,3,1867
WI,Sheboygan,53083,43.80234,-87.7698,3,1868
WI,Sheboygan Falls,53085,43.731424,-87.816063,3,1869
WI,Sheboygan,53083,43.80234,-87.7698,3,1870
WI,Sturgeon Bay,54235,44.84316,-87.39726,3,1871
WI,Fond du Lac,54935,43.775242,-88.431561,3,1872
WI,Kohler,53044,43.740624,-87.785575,3,1873
WI,Sheboygan,53081,43.741822,-87.728355,3,1874
WI,Sheboygan Falls,53085,43.731424,-87.816063,3,1875
WI,Sheboygan,53081,43.741822,-87.728355,3,1876
WI,Sheboygan,53081,43.741822,-87.728355,3,1877
WI,Oostburg,53070,43.627466,-87.792764,3,1878
WI,Sheboygan,53081,43.741822,-87.728355,3,1879
WI,Sheboygan Falls,53085,43.731424,-87.816063,3,1880
OH,Ashland,44805,40.85322,-82.31502,3,1881
MO,Raytown,64133,39.02202,-94.46454,3,1882
MO,Parkville,64152,39.21816,-94.7307,3,1883
MO,Kansas City,64131,38.967545,-94.573365,3,1884
KS,Leawood,66206,38.9508,-94.626,3,1885
MO,Blue Springs,64015,39.0177,-94.31064,3,1886
KS,Lenexa,66215,38.94918,-94.74246,3,1887
KS,Merriam,66203,39.01776,-94.69686,3,1888
MO,Kansas City,64117,39.154167,-94.546667,3,1889
KS,Overland Park,66212,38.955997,-94.682048,3,1890
MO,Kansas City,64120,39.12391,-94.5372,3,1891
MO,Independence,64055,39.049222,-94.401477,3,1892
KS,Overland Park,66212,38.955997,-94.682048,3,1893
MO,Kansas City,64134,38.933195,-94.494689,3,1894
MO,Kansas City,64117,39.154167,-94.546667,3,1895
MO,Kansas City,64157,39.277775,-94.470561,3,1896
KS,Kansas City,66102,39.114418,-94.681239,3,1897
MO,Kansas City,64153,39.27337,-94.691489,3,1898
KS,Lenexa,66215,38.94918,-94.74246,3,1899
MO,Liberty,64068,39.27648,-94.42326,3,1900
KS,Gardner,66030,38.815013,-94.93308,3,1901
KS,Lenexa,66219,38.965992,-94.764646,3,1902
KS,Olathe,66062,38.840421,-94.78191,3,1903
KS,Overland Park,66223,38.854674,-94.667175,3,1904
KS,Overland Park,66221,38.86182,-94.71264,3,1905
KS,Roeland Park,66205,39.032921,-94.634324,3,1906
MO,Kansas City,64114,38.963244,-94.597784,3,1907
MO,Raytown,64133,39.02202,-94.46454,3,1908
KS,Olathe,66062,38.840421,-94.78191,3,1909
KS,Overland Park,66212,38.955997,-94.682048,3,1910
MO,Kansas City,64114,38.963244,-94.597784,3,1911
MO,Kansas City,64114,38.963244,-94.597784,3,1912
MO,Raytown,64133,39.02202,-94.46454,3,1913
MO,Lee'S Summit,64063,38.917563,-94.362282,3,1914
MO,Kansas City,64134,38.933195,-94.494689,3,1915
MO,Raytown,64138,38.971599,-94.474727,3,1916
MO,Liberty,64068,39.27648,-94.42326,3,1917
OH,Rittman,44270,40.9525,-81.735556,3,1918
OH,Wooster,44691,40.806978,-81.956817,3,1919
OH,Creston,44217,40.961849,-81.906308,3,1920
OH,Chippewa Lake,44215,41.068001,-81.904211,3,1921
OH,Medina,44256,41.134844,-81.860472,3,1922
OH,Medina,44256,41.134844,-81.860472,3,1923
OH,Doylestown,44230,40.96572,-81.687944,3,1924
OH,Valley City,44280,41.238919,-81.917158,3,1925
OH,Medina,44256,41.134844,-81.860472,3,1926
IL,Springfield,62707,39.777482,-89.650787,3,1927
IL,Mahomet,61853,40.198333,-88.389388,3,1928
IL,McLean,61754,40.314947,-89.170467,3,1929
OK,Watonga,73772,35.855545,-98.41044,1,1930
OK,Kingfisher,73750,35.848233,-97.936158,1,1931
CO,Gunnison,81230,38.45342,-106.60986,1,1932
OK,Altus,73521,34.642895,-99.327035,1,1933
AZ,Benson,85602,31.965389,-110.296656,1,1934
OK,Hollis,73550,34.688629,-99.915553,1,1935
KS,Great Bend,67530,38.368828,-98.776747,1,1936
CO,LaJunta,81050,37.81822,-103.77405,1,1937
OK,Marlow,73055,34.644252,-97.96145,1,1938
OK,Fairview,73737,36.26892,-98.51388,1,1939
OK,Woodward,73801,36.432094,-99.399622,1,1940
OK,Alva,73717,36.796749,-98.668264,1,1941
OK,Guymon,73942,36.684157,-101.479147,1,1942
OK,Beaver,73932,36.73818,-100.5483,1,1943
NM,Clayton,88415,36.451664,-103.180222,1,1944
CO,Lamar,81052,37.95864,-102.5787,1,1945
KS,Liberal,67901,37.041883,-100.928884,1,1946
OK,Purcell,73080,35.017904,-97.366998,1,1947
OK,Duncan,73533,34.513258,-97.960374,1,1948
CO,Monte Vista,81144,37.566562,-106.148089,1,1949
OK,Elk City,73644,35.410421,-99.413649,1,1950
KS,Pratt,67124,37.648212,-98.738461,1,1951
OK,Mangum,73554,34.876209,-99.504161,1,1952
OK,Buffalo,73834,36.82698,-99.59238,1,1953
CO,Springfield,81073,37.397087,-102.621835,1,1954
CO,Lamar,81052,37.95864,-102.5787,1,1955
KS,Syracuse,67878,37.984523,-101.747922,1,1956
KS,Hays,67601,38.82,-99.40866,1,1957
OK,Hooker,73945,36.82728,-101.1822,1,1958
OK,Woodward,73801,36.432094,-99.399622,1,1959
OK,Hennessey,73742,36.107231,-97.899726,1,1960
OK,Shawnee,74801,35.309893,-96.920802,1,1961
OK,Pauls Valley,73075,34.759938,-97.206699,1,1962
OK,Tecumseh,74873,35.25996,-96.97434,1,1963
OK,Ada,74820,34.77192,-96.67998,1,1964
OK,Ardmore,73401,34.33249,-97.33532,1,1965
OK,Comanche,73529,34.366492,-97.970381,1,1966
OK,Marlow,73055,34.644252,-97.96145,1,1967
OK,Henryetta,74437,35.44128,-95.96868,1,1968
KS,Dodge City,67801,37.757785,-100.018943,1,1969
KS,Phillipsburg,67661,39.757045,-99.325612,1,1970
KS,Norton,67654,39.834865,-99.889403,1,1971
KS,Colby,67701,39.394672,-101.047317,1,1972
KS,Dodge City,67801,37.757785,-100.018943,1,1973
OK,Durant,74701,34.003629,-96.383237,1,1974
OK,Durant,74701,34.003629,-96.383237,1,1975
OK,Miami,74354,36.880147,-94.87431,1,1976
OK,Lindsay,73052,34.840396,-97.607974,1,1977
OK,Tahlequah,74464,35.913588,-94.967828,1,1978
OK,Ada,74820,34.77192,-96.67998,1,1979
OK,Madill,73446,34.085514,-96.773997,1,1980
OK,Guthrie,73044,35.864031,-97.424514,1,1981
OK,Chickasha,73018,35.033843,-97.947357,1,1982
OK,Yukon,73099,35.496256,-97.732383,1,1983
KS,Garden City,67846,37.97343,-100.849523,1,1984
OK,Broken Bow,74728,34.027544,-94.73475,1,1985
OK,Chickasha,73018,35.033843,-97.947357,1,1986
KS,Arkansas City,67005,37.071,-97.05972,1,1987
OK,El Reno,73036,35.528207,-97.953685,1,1988
CO,Buena Vista,81211,38.849213,-106.155646,1,1989
KS,Meade,67864,37.283989,-100.33892,1,1990
OK,Crescent,73028,35.952496,-97.595964,1,1991
OK,Wynnewood,73098,34.64137,-97.165867,1,1992
OK,Oklahoma City,73160,35.38116,-97.47588,1,1993
TX,Amarillo,79120,35.192767,-101.760356,1,1994
OK,Elk City,73648,35.407089,-99.420825,1,1995
OK,Oklahoma City,73128,35.451515,-97.620639,1,1996
OK,Eufaula,74432,35.288414,-95.585124,1,1997
OK,Edmond,73131,35.578851,-97.470162,1,1998
AL,Loxley,36551,30.615589,-87.751521,1,1999
CA,Coachella,92236,33.68036,-116.178246,1,2000
MS,Canton,39046,32.63928,-90.0075,1,2001
LA,Greenwood,71033,32.437841,-93.988179,1,2002
NM,Albuquerque,87102,35.077349,-106.653549,1,2003
OK,Oklahoma City,73149,35.392069,-97.490844,1,2004
OK,Tonkawa,74653,36.679522,-97.302551,1,2005
TX,El Paso,79927,31.65522,-106.22826,1,2006
NM,Gallup,87301,35.522559,-108.7258,1,2007
TX,Midlothian,76065,32.478311,-96.981773,1,2008
TX,Denton,76207,33.237391,-97.180102,1,2009
OK,Guthrie,73044,35.864031,-97.424514,1,2010
OK,Seminole,74868,35.234976,-96.675123,1,2011
WY,Cheyenne,82007,41.111908,-104.863666,1,2012
OH,Zanesville,43701,39.95424,-81.98496,1,2013
IN,Richmond,47374,39.83393,-84.891208,1,2014
CA,Ripon,95366,37.778832,-121.124563,1,2015
AL,Evergreen,36401,31.430309,-86.956166,1,2016
CO,Pueblo,81008,38.327052,-104.62595,1,2017
AL,McCalla,35111,33.268815,-87.144228,1,2018
FL,Auburndale,33868,28.195584,-81.831716,1,2019
TX,Claude,79068,35.348164,-101.380933,1,2020
CA,Lost Hills,93249,35.655395,-119.76904,1,2021
TX,Hillsboro,76645,32.01474,-97.10886,1,2022
TX,Waller,77484,30.075392,-95.890763,1,2023
TX,Katy,77494,29.753968,-95.810176,1,2024
MO,St. Joseph,64507,39.748921,-94.808435,1,2025
AR,North Little Rock,72231,34.746261,-92.276659,1,2026
LA,Richmond,71282,32.37468,-91.06548,1,2027
KY,Shepherdsville,40165,38.010762,-85.697038,1,2028
VA,Max Meadows,24360,36.92448,-80.9118,1,2029
LA,Port Allen,70767,30.478469,-91.276421,1,2030
TX,Von Ormy,78073,29.254866,-98.613495,1,2031
LA,Iowa,70647,30.236653,-93.01465,1,2032
TN,Jackson,38301,35.610381,-88.819872,1,2033
OK,Oklahoma City,73158,35.4675,-97.51611,1,2034
NV,Fernley,89408,39.597279,-119.231521,1,2035
TX,Memphis,79245,34.727267,-100.539322,1,2036
OK,Clinton,73601,35.515594,-98.97114,1,2037
IL,Williamsville,62693,39.953762,-89.54424,1,2038
TX,Amarillo,79124,35.248182,-101.907512,1,2039
OK,McLoud,74851,35.4255,-97.1046,1,2040
OK,Erick,73645,35.212348,-99.868165,1,2041
IN,Mooresville,46158,39.592032,-86.375059,1,2042
OK,Webbers Falls,74470,35.508872,-95.126074,1,2043
TX,Van Horn,79855,31.06,-104.21,1,2044
NM,Milan,87021,35.170117,-107.888998,1,2045
KS,Ottawa,66067,38.607557,-95.267627,1,2046
NM,Las Cruces,88004,32.333848,-106.719414,1,2047
OK,Norman,73072,35.229803,-97.504824,1,2048
TX,Amarillo,79110,35.149965,-101.872798,1,2049
NM,Tucumcari,88401,35.169863,-103.720274,1,2050
OK,Lawton,73501,34.61124,-98.39599,1,2051
TX,Luling,78648,29.678992,-97.646226,1,2052
AZ,Eloy/Casa Grande,85131,32.74132,-111.58537,1,2053
OK,Ardmore,73401,34.33249,-97.33532,1,2054
AR,Morrilton,72110,35.23866,-92.67108,1,2055
OK,Atoka,74525,34.385284,-96.13211,1,2056
TX,Wichita Falls,76301,33.911774,-98.4986,1,2057
TX,Ranger,76470,32.457305,-98.688287,1,2058
AR,Ozark,72949,35.490486,-93.83857,1,2059
AZ,Kingman,86401,35.52402,-113.99268,1,2060
TX,Weatherford,76086,32.787926,-97.817546,1,2061
OK,Okemah,74859,35.43146,-96.305173,1,2062
AR,Palestine,72372,34.95207,-90.904029,1,2063
NM,Lordsburg,88045,32.347258,-108.708739,1,2064
AR,Prescott,71857,33.802675,-93.377033,1,2065
AZ,Joseph City,86032,34.964299,-110.330963,1,2066
TX,Mt. Vernon,75457,33.180969,-95.227426,1,2067
AZ,Buckeye,85326,33.382557,-112.568263,1,2068
TX,Ft. Worth,76140,32.612498,-97.271398,1,2069
MO,Joplin,64804,37.064704,-94.509874,1,2070
TX,Rockwall,75087,32.89932,-96.41208,1,2071
TX,Edinburg,78541,26.295361,-98.16343,1,2072
NM,Santa Rosa,88435,34.936606,-104.684358,1,2073
AZ,Quartzsite,85346,33.666731,-114.214619,1,2074
TX,Van Horn,75790,32.52924,-95.63749,1,2075
TX,Fairfield,75840,31.722324,-96.157345,1,2076
LA,Minden,71055,32.617484,-93.281086,1,2077
TX,Lufkin,75901,31.330215,-94.721876,1,2078
KY,Richmond,40475,37.76341,-84.300058,1,2079
IL,Dwight,60420,41.089777,-88.426759,1,2080
TX,Cleveland,77328,30.341748,-95.086861,1,2081
TX,Dallas,75232,32.65564,-96.842603,1,2082
OK,Chouteau,74337,36.189386,-95.333812,1,2083
AZ,Gila Bend,85337,32.984592,-112.679461,1,2084
TX,Edna,77957,28.97418,-96.64992,1,2085
TX,Encinal,78019,28.038753,-99.353485,1,2086
TX,Anna,75409,33.345806,-96.577245,1,2087
CO,Bennett,80102,39.751155,-104.448047,1,2088
ID,Post Falls,83854,47.74092,-116.9448,1,2089
OK,Boise City,73933,36.730203,-102.507607,1,2090
KY,Waddy,40076,38.149878,-85.06148,1,2091
AL,Steele,35987,33.928976,-86.174926,1,2092
VA,Toms Brook,22660,38.949385,-78.43084,1,2093
TN,Dandridge,37725,36.020059,-83.419087,1,2094
GA,Jackson,30233,33.294108,-83.965048,1,2095
NC,Marion,28752,35.674582,-82.017112,1,2096
NE,Aurora,68818,40.85508,-98.0127,1,2097
WY,Wamsutter,82336,41.62957,-108.26482,1,2098
GA,Waco,30182,33.642788,-85.234357,1,2099
OR,Roseburg,97470,43.223282,-123.36627,1,2100
MO,Matthews,63867,36.757869,-89.587967,1,2101
TN,Christiana,30737,35.71,-86.39944,1,2102
TX,Houston,77013,29.795292,-95.23979,1,2103
FL,Ormond Beach,32174,29.289955,-81.123815,1,2104
VA,Skippers,23879,36.588846,-77.542319,1,2105
IL,Ina,62846,38.15239,-88.904498,1,2106
IN,Pittsboro,46167,39.878885,-86.469256,1,2107
GA,Dublin,31021,32.542986,-82.909684,1,2108
KY,Corbin,40701,36.937489,-84.114901,1,2109
IL,Roscoe,61073,42.423292,-88.992945,1,2110
IN,Marion,46952,40.573842,-85.666492,1,2111
PA,Mifflinville,18631,41.029799,-76.308789,1,2112
GA,Tifton,31794,31.460118,-83.509086,1,2113
SC,Orangeburg,29115,33.581944,-80.818056,1,2114
TX,Kingsville,78363,27.514425,-97.86085,1,2115
AZ,Chandler,85226,33.306009,-111.919281,1,2116
NM,Clovis,88101,34.40538,-103.24842,1,2117
TN,Baxter,38544,36.156092,-85.640158,1,2118
TX,Hutchins,75141,32.645353,-96.707711,1,2119
OH,Burbank,44214,40.946706,-81.998141,1,2120
SC,Ft. Mill,29708,35.006322,-80.942526,1,2121
ID,Heyburn,83336,42.562718,-113.763959,1,2122
UT,Cedar City,84720,37.713174,-113.085548,1,2123
MI,Marshall,49068,42.268198,-84.942961,1,2124
MN,Albert Lea,56007,43.650835,-93.371347,1,2125
GA,Richmond Hill,31324,31.875724,-81.284127,1,2126
TX,Odessa,79766,31.812902,-102.338633,1,2127
NV,Las Vegas,89105,36.171909,-115.139969,1,2128
MO,Rolla,65401,37.950864,-91.763227,1,2129
TX,Three Rivers,78071,28.356491,-98.135804,1,2130
MS,Toomsuba,39364,32.43162,-88.4661,1,2131
TN,Memphis,38118,35.048583,-89.925961,1,2132
WI,Oakdale,54660,43.9941,-90.45972,1,2133
TN,Columbia,38401,35.609931,-87.048941,1,2134
MO,Boonville,65233,38.964646,-92.743139,1,2135
KY,Calvert City,42029,37.019627,-88.347552,1,2136
AZ,Yuma,85365,32.672337,-114.502398,1,2137
IL,Utica,61373,41.38694,-88.997371,1,2138
OH,Jeffersonville,43128,39.65666,-83.573926,1,2139
SD,Fargo,58102,46.893312,-96.798609,1,2140
GA,Thomson,30824,33.468374,-82.498017,1,2141
IN,Memphis,47143,38.471919,-85.766289,1,2142
OH,N. Baltimore,45872,41.189235,-83.669819,1,2143
CO,Fountain,80817,38.698619,-104.696917,1,2144
PA,Hamburg,19526,40.55,-76.016667,1,2145
GA,Emerson,30121,34.228469,-84.789525,1,2146
KY,Horse Cave,42749,37.185069,-85.878778,1,2147
IA,Newton,50208,41.697096,-93.046897,1,2148
LA,Vinton,70668,30.190438,-93.581492,1,2149
FL,Ocala,34482,29.229052,-82.306676,1,2150
TN,Charleston,37310,35.258306,-84.868393,1,2151
NV,Wells,89835,41.108927,-114.965942,1,2152
PA,Jonestown,17038,40.410665,-76.486339,1,2153
IL,LeRoy,61752,40.346851,-88.76692,1,2154
AL,Clanton,35046,32.839427,-86.623504,1,2155
TN,Dickson,37055,36.083188,-87.428235,1,2156
OH,Hubbard,44425,41.163813,-80.581187,1,2157
SC,Dillon,29536,34.414774,-79.364457,1,2158
OR,Ontario,97914,44.052879,-116.984744,1,2159
OK,Colbert,74730,33.93633,-96.430353,1,2160
CA,Barstow,92311,34.887322,-117.037597,1,2161
TX,Hearne,77859,30.876381,-96.596524,1,2162
GA,Hogansville,30230,33.166257,-84.943787,1,2163
CO,Hudson,80642,40.077349,-104.641907,1,2164
WV,Ripley,25271,38.814793,-81.707302,1,2165
FL,Lee,32059,30.365439,-83.263804,1,2166
TX,Rhome,76078,33.046961,-97.472602,1,2167
AL,Falkville,35622,34.381767,-86.903816,1,2168
CA,Tulare,93274,36.208357,-119.341083,1,2169
KY,Sanders,41083,38.664881,-84.996614,1,2170
IL,Greenville,62246,38.888242,-89.407911,1,2171
OK,Hinton,73047,35.473849,-98.355464,1,2172
AZ,Lake Havasu,86404,34.518339,-114.324094,1,2173
SC,Fair Play,29643,34.524647,-83.042855,1,2174
MS,Batesville,38606,34.316846,-89.949955,1,2175
OH,Conneaut,44030,41.931936,-80.581103,1,2176
NE,N. Platte,69101,41.133414,-100.771684,1,2177
IN,St. Paul,47272,39.430872,-85.633781,1,2178
CA,Tehachapi,93561,35.135575,-118.527991,1,2179
MS,McComb,39648,31.16238,-90.38442,1,2180
IN,Demotte,46310,41.184919,-87.209975,1,2181
IL,Kankakee,60901,41.113633,-87.860293,1,2182
SC,Newberry,29108,34.277092,-81.618636,1,2183
SC,Blacksburg,29702,35.11567,-81.513969,1,2184
MS,Tupelo,38804,34.286982,-88.683036,1,2185
VA,Lambsburg,24351,36.579012,-80.780164,1,2186
TX,Baytown,77521,29.795863,-94.973054,1,2187
MS,Biloxi,39532,30.461218,-88.949246,1,2188
NY,Binghamton,13904,42.12906,-75.82182,1,2189
NJ,Bordentown,8505,40.12842,-74.71686,1,2190
GA,Brunswick,31520,31.178679,-81.489022,1,2191
PA,Carlisle,17013,40.203056,-77.313611,1,2192
CA,Corning,96021,39.926419,-122.190031,1,2193
IA,DesMoines,50325,41.604998,-93.747731,1,2194
NC,Dunn,28334,35.310491,-78.619199,1,2195
WA,Ellensburg,98926,46.999556,-120.542589,1,2196
IN,Haubstadt,47639,38.1846,-87.62592,1,2197
FL,Fort Pierce,34945,27.42497,-80.450133,1,2198
IN,Gary,46408,41.539202,-87.365937,1,2199
KY,Grayson,41143,38.329825,-82.936538,1,2200
TX,Houston,77009,29.796922,-95.368503,1,2201
MS,Flowood,39232,32.289828,-90.181404,1,2202
SC,Lexington,29073,33.927355,-81.216327,1,2203
IA,Shelby,51570,41.519002,-95.452367,1,2204
OH,Dayton,45417,39.75581,-84.240573,1,2205
TN,Nashville,37207,36.222188,-86.773002,1,2206
WI,Oak Creek,53154,42.88606,-87.903062,1,2207
VA,Ruther Glen,22546,38.007807,-77.545616,1,2208
UT,Salt Lake City,84116,40.785043,-111.930074,1,2209
CA,Santa Nella,95322,37.1889,-120.9861,1,2210
SD,Sioux Falls,57104,43.556226,-96.734063,1,2211
TX,El Paso,79821,31.970939,-106.597447,1,2212
WA,Tacoma,98424,47.23836,-122.36202,1,2213
OR,Troutdale,97060,45.527631,-122.397778,1,2214
AR,West Memphis,72304,35.14639,-90.18444,1,2215
IN,Whiteland,46184,39.555508,-86.091336,1,2216
OK,Pauls Valley,73075,34.759938,-97.206699,1,2217
FL,Cottondale,32431,30.798181,-85.373699,1,2218
WA,Napavine,98532,46.63908,-123.01572,1,2219
KS,Ellis,67637,38.938253,-99.562205,1,2220
OH,Perrysburg,43551,41.542639,-83.597702,1,2221
AR,Little Rock,72210,34.712586,-92.457803,1,2222
MO,Strafford,65757,37.271244,-93.115517,1,2223
IN,Whitestown,46075,39.982382,-86.35094,1,2224
AZ,Benson,85602,31.965389,-110.296656,1,2225
MO,St. Louis,63147,38.695585,-90.223216,1,2226
TX,Sequin,78155,29.56666,-97.965413,1,2227
TX,Comfort,78013,29.984861,-98.839637,1,2228
AL,Jasper,35501,33.842149,-87.274833,1,2229
FL,Ft. Pierce,34945,27.42497,-80.450133,1,2230
TX,Willis,77318,30.452396,-95.537675,1,2231
VA,La Crosse,23950,36.752222,-78.046389,1,2232
FL,Jasper,32052,30.517247,-82.950317,1,2233
TX,Natalia,78059,29.18564,-98.853745,1,2234
TX,Leary,75503,33.461416,-94.072824,1,2235
ND,Williston,58801,48.41687,-103.82386,1,2236
TX,Sweetwater,79556,32.46594,-100.38624,1,2237
IA,Davenport,52806,41.571562,-90.60316,1,2238
ID,Idaho Falls,83402,43.496857,-112.113288,1,2239
IA,Sioux City,51111,42.425511,-96.375133,1,2240
TN,Lenoir City,37771,35.792702,-84.266138,1,2241
TX,Deer Park,77536,29.696919,-95.112428,1,2242
TX,Weimar,78962,29.68566,-96.7284,1,2243
OK,Choctaw,73020,35.461457,-97.263145,1,2244
MO,Bloomsdale,63627,38.033035,-90.256122,1,2245
TN,Jasper,37347,35.06928,-85.6023,1,2246
TX,Pecos,79772,31.375544,-103.523013,1,2247
FL,North Ft. Myers,33917,26.704114,-81.853949,1,2248
MO,Eagleville,64420,40.483158,-94.288233,1,2249
NC,Salisbury,28146,35.630497,-80.432818,1,2250
WA,Ritzville,99169,47.125853,-118.377738,1,2251
CO,Grand Junction,81505,39.107861,-108.607362,1,2252
UT,Springville,84663,40.162967,-111.60305,1,2253
LA,Rayne,70578,30.234611,-92.266913,1,2254
TX,Oglesby,61348,41.291493,-89.048588,1,2255
AL,Moody,35004,33.59212,-86.497541,1,2256
PA,Londenberry,17057,40.204159,-76.734268,1,2257
MD,Cumberland,21502,39.596959,-78.834511,1,2258
CA,Lodi,95242,38.127032,-121.322128,1,2259
TX,Andrews,79714,32.32711,-102.548597,1,2260
TX,Ft. Stockton,79735,30.887216,-102.881646,1,2261
IN,Angola,46703,41.66718,-84.98964,1,2262
AZ,Williams,86046,35.289747,-112.161649,1,2263
AR,Searcy,72143,35.25228,-91.84926,1,2264
KS,Dodge City,67801,37.757785,-100.018943,1,2265
MS,Indianola,38751,33.452442,-90.645728,1,2266
VA,Franklin,23851,36.672869,-76.940007,1,2267
FL,Defuniak Springs,32435,30.719521,-86.121763,1,2268
MS,Columbus,39702,33.438653,-88.346866,1,2269
AL,Ozark,36360,31.443324,-85.646911,1,2270
AL,Shorter,36075,32.406725,-85.954678,1,2271
IL,Hamel,62046,38.889943,-89.846942,1,2272
AL,Tuscumbia,35674,34.725279,-87.697761,1,2273
UT,Salina,84654,38.951768,-111.860719,1,2274
IL,New Baden,62265,38.497891,-89.664427,1,2275
MO,Neosho,64850,36.863757,-94.373223,1,2276
WI,Fond du Lac,54937,43.808088,-88.480729,1,2277
TX,Lubbock,79404,33.553575,-101.821365,1,2278
IN,Woodburn,46797,41.130094,-84.866509,1,2279
OH,Bidwell,45614,38.928707,-82.254397,1,2280
MS,Gulfport,39503,30.4731,-89.15382,1,2281
IN,Pendleton,46064,39.99252,-85.77294,1,2282
IN,Knightstown,46148,39.794447,-85.525839,1,2283
SD,Box Elder,57719,44.116272,-103.078498,1,2284
FL,Jacksonville,32218,30.461492,-81.625786,1,2285
OK,Guthrie,73044,35.864031,-97.424514,1,2286
OH,Springfield,45502,39.925374,-83.824327,1,2287
IL,South Holland,60473,41.598979,-87.596242,1,2288
AR,Jonesboro,72404,35.800265,-90.714862,1,2289
KS,McPherson,67460,38.38716,-97.65654,1,2290
TX,Denton,76207,33.237391,-97.180102,1,2291
TX,Baird,79504,32.395547,-99.397885,1,2292
NY,Canaan,12029,42.391057,-73.400428,1,2293
MO,Bridgeton,63044,38.76078,-90.41286,1,2294
VA,Meadowview,24361,36.766293,-81.85565,1,2295
NM,Albuquerque,87121,35.016799,-106.755725,1,2296
MO,Harrisonville,64701,38.629786,-94.326071,1,2297
TX,Hungerford,77448,29.310181,-96.097046,1,2298
KY,Sadieville,40370,38.387033,-84.533895,1,2299
MS,Poplarville,39470,30.87972,-89.58846,1,2300
FL,Hawthorne,32640,29.591884,-82.112532,1,2301
MO,Bevier,63532,39.750077,-92.56252,1,2302
WI,Menomonie,54751,44.877251,-91.923866,1,2303
TX,Midland,79706,31.989044,-102.073733,1,2304
AL,Prichard,36612,30.75129,-88.110308,1,2305
NE,Sidney,69162,41.13132,-103.03158,1,2306
TX,Dumas,79029,35.862274,-101.966232,1,2307
FL,Davenport,33897,28.199309,-81.61863,1,2308
TX,Italy,76651,32.181612,-96.885798,1,2309
TN,White House,37188,36.484055,-86.687263,1,2310
OK,Enid,73701,36.405255,-97.874299,1,2311
NE,Ennis,68064,41.312896,-96.347618,1,2312
KS,Liberal,69701,37.04306,-100.92056,1,2313
IN,Plymouth,46563,41.348915,-86.328202,1,2314
AR,Alma,72921,35.486757,-94.227174,1,2315
OK,Nowata,74048,36.697172,-95.639359,1,2316
WI,Dekorra,53955,43.393535,-89.413257,1,2317
OK,Texhoma,73949,36.508709,-101.775332,1,2318
MS,Lake,39092,32.340473,-89.356039,1,2319
WI,Wilson Township,53081,43.741822,-87.728355,1,2320
TN,Dyersburg,38024,36.039737,-89.384816,1,2321
TX,Hereford,79045,34.821088,-102.402643,1,2322
MO,Sikeston,63801,36.889917,-89.578212,1,2323
CO,Burlington,80807,39.304827,-102.246973,1,2324
KS,Belleville,66935,39.822698,-97.630773,1,2325
OK,Valliant,74764,34.00026,-95.092994,1,2326
CO,Brush,80723,40.250157,-103.619204,1,2327
OR,Boardman,97818,45.810948,-119.695417,1,2328
TX,Van,75790,32.52924,-95.63749,1,2329
CO,Eads,81036,38.463,-102.65286,1,2330
OK,Union City,73090,35.395797,-97.93531,1,2331
TX,Scott City,67871,38.47902,-100.89144,1,2332
KS,Holcomb,67851,38.005295,-100.984166,1,2333
SC,Cayce,29033,33.965536,-81.069156,1,2334
OK,Watts,74964,36.116613,-94.660947,1,2335
AZ,Tolleson,85353,33.413557,-112.273803,1,2336
AR,Pine Bluff,71601,34.20168,-91.929399,1,2337
TX,Quanah,97818,45.810948,-119.695417,1,2338
LA,Port Barre,70577,30.541871,-91.96395,1,2339
IN,Terre Haute,47802,39.42715,-87.391878,1,2340
TX,Angleton,77515,29.168122,-95.425065,1,2341
NC,Mebane,27302,36.089915,-79.285944,1,2342
MO,New London,63459,39.586253,-91.398191,1,2343
IA,Floyd,50435,43.127067,-92.736859,1,2344
AR,Blytheville,72315,35.94318,-89.89932,1,2345
TX,Sinton,78387,28.033412,-97.505169,1,2346
TX,Domino,75572,33.17526,-94.1523,1,2347
OK,Okmulgee,74447,35.623341,-95.970246,1,2348
NE,Syracuse,68446,40.658087,-96.183226,1,2349
MS,West Point,39773,33.62958,-88.66428,1,2350
TX,Paris,75460,33.665531,-95.543795,1,2351
MT,Hardin,59034,45.714719,-107.61874,1,2352
NE,Norfolk,68701,42.033639,-97.421914,1,2353
WA,Prosser,99350,46.203527,-119.766249,1,2354
MD,Hagerstown,21742,39.657087,-77.709741,1,2355
FL,Moore Haven,33471,26.83404,-81.10405,1,2356
IA,Ellsworth,50075,42.31337,-93.580699,1,2357
IL,Knoxville,61448,40.906224,-90.279802,1,2358
UT,Brigham City,84302,41.53608,-112.0488,1,2359
IL,So. Jacksonville,62650,39.730959,-90.238625,1,2360
IL,Greenup,62428,39.202222,-88.041111,1,2361
OH,Circleville,43113,39.594775,-82.936458,1,2362
NV,Ely,89301,39.38196,-114.88344,1,2363
KS,Chanute,66720,37.64082,-95.46498,1,2364
OH,Upper Sandusky,43351,40.81548,-83.31012,1,2365
TN,Ramer,38367,35.052884,-88.638071,1,2366
KS,Cunningham,67035,37.66674,-98.40258,1,2367
TX,Beaumont,77705,29.9694,-94.1553,1,2368
NC,Newton,28658,35.658361,-81.233412,1,2369
GA,Macon,31216,32.730819,-83.683586,1,2370
MS,Magee,39111,31.872919,-89.734963,1,2371
MI,Capac,48014,43.023996,-82.92432,1,2372
IA,Waterloo,50701,42.478356,-92.367856,1,2373
KS,South Hutchinson,67502,38.102658,-97.919629,1,2374
IA,Pacific Junction,51561,41.020858,-95.79767,1,2375
VA,Talleysville (New Kent),23140,37.443403,-77.056714,1,2376
FL,Bushnell,33513,28.661872,-82.114026,1,2377
OH,Bellville,44813,40.610016,-82.51793,1,2378
OK,Newcastle,73065,35.249529,-97.626363,1,2379
TX,Bridgeport,76426,33.151387,-97.821373,1,2380
KY,Elizabethtown,42701,37.707586,-85.861867,1,2381
VA,Disputanta,23842,37.15295,-77.237944,1,2382
AL,Hope Hull,36043,32.230319,-86.367123,1,2383
TX,Troy,76579,31.204456,-97.308221,1,2384
LA,Boyce,71409,31.30986,-92.70708,1,2385
TX,Alma,75119,32.339376,-96.566955,1,2386
NM,Belen,87002,34.656448,-106.759548,1,2387
OK,Randlett,73562,34.177916,-98.434828,1,2388
